{
"type": "FeatureCollection",
"name": "pyroclass_prototype_h3_cells",
"crs": { "type": "name", "properties": { "name": "urn:ogc:def:crs:OGC:1.3:CRS84" } },
"features": [
{ "type": "Feature", "properties": { "case_id": "CASE_01", "case_type": "persistent", "center_h3_cell": "873ca9c86ffffff", "h3_cell": "873ca9c80ffffff", "relation": "neighbor", "ring": 1 }, "geometry": { "type": "Polygon", "coordinates": [ [ [ 86.439917852973565, 23.781129397125543 ], [ 86.435835753919022, 23.793400428790239 ], [ 86.421861318471969, 23.795910696272479 ], [ 86.411970436737633, 23.786150695072514 ], [ 86.416052896201862, 23.773880261807278 ], [ 86.430025877389951, 23.771369231193141 ], [ 86.439917852973565, 23.781129397125543 ] ] ] } },
{ "type": "Feature", "properties": { "case_id": "CASE_01", "case_type": "persistent", "center_h3_cell": "873ca9c86ffffff", "h3_cell": "873ca9c86ffffff", "relation": "center", "ring": 0 }, "geometry": { "type": "Polygon", "coordinates": [ [ [ 86.416052896201862, 23.773880261807278 ], [ 86.411970436737633, 23.786150695072514 ], [ 86.397997995328581, 23.788659084729073 ], [ 86.388109468824453, 23.778897805925627 ], [ 86.392192287083219, 23.766627972629642 ], [ 86.406163273450687, 23.76411881801863 ], [ 86.416052896201862, 23.773880261807278 ] ] ] } },
{ "type": "Feature", "properties": { "case_id": "CASE_01", "case_type": "persistent", "center_h3_cell": "873ca9c86ffffff", "h3_cell": "873ca9c82ffffff", "relation": "neighbor", "ring": 1 }, "geometry": { "type": "Polygon", "coordinates": [ [ [ 86.434107781179875, 23.759095993257883 ], [ 86.430025877389951, 23.771369231193141 ], [ 86.416052896201862, 23.773880261807278 ], [ 86.406163273450687, 23.76411881801863 ], [ 86.41024553720716, 23.751846179556939 ], [ 86.424217064147399, 23.749334385261072 ], [ 86.434107781179875, 23.759095993257883 ] ] ] } },
{ "type": "Feature", "properties": { "case_id": "CASE_01", "case_type": "persistent", "center_h3_cell": "873ca9c86ffffff", "h3_cell": "873ca9c84ffffff", "relation": "neighbor", "ring": 1 }, "geometry": { "type": "Polygon", "coordinates": [ [ [ 86.421861318471969, 23.795910696272479 ], [ 86.417778663380702, 23.808178921471292 ], [ 86.403804766918483, 23.810686546724376 ], [ 86.393914980999938, 23.800926711032766 ], [ 86.397997995328581, 23.788659084729073 ], [ 86.411970436737633, 23.786150695072514 ], [ 86.421861318471969, 23.795910696272479 ] ] ] } },
{ "type": "Feature", "properties": { "case_id": "CASE_01", "case_type": "persistent", "center_h3_cell": "873ca9c86ffffff", "h3_cell": "873ca9c95ffffff", "relation": "neighbor", "ring": 1 }, "geometry": { "type": "Polygon", "coordinates": [ [ [ 86.41024553720716, 23.751846179556939 ], [ 86.406163273450687, 23.76411881801863 ], [ 86.392192287083219, 23.766627972629642 ], [ 86.382305019901096, 23.756865254134471 ], [ 86.386387642009481, 23.744593216716982 ], [ 86.400357173347075, 23.742083296601365 ], [ 86.41024553720716, 23.751846179556939 ] ] ] } },
{ "type": "Feature", "properties": { "case_id": "CASE_01", "case_type": "persistent", "center_h3_cell": "873ca9c86ffffff", "h3_cell": "873ca9cb3ffffff", "relation": "neighbor", "ring": 1 }, "geometry": { "type": "Polygon", "coordinates": [ [ [ 86.392192287083219, 23.766627972629642 ], [ 86.388109468824453, 23.778897805925627 ], [ 86.374139025804723, 23.781404319337177 ], [ 86.36425285726493, 23.771641766080489 ], [ 86.368336032703596, 23.759372534322839 ], [ 86.382305019901096, 23.756865254134471 ], [ 86.392192287083219, 23.766627972629642 ] ] ] } },
{ "type": "Feature", "properties": { "case_id": "CASE_01", "case_type": "persistent", "center_h3_cell": "873ca9c86ffffff", "h3_cell": "873ca9cb1ffffff", "relation": "neighbor", "ring": 1 }, "geometry": { "type": "Polygon", "coordinates": [ [ [ 86.397997995328581, 23.788659084729073 ], [ 86.393914980999938, 23.800926711032766 ], [ 86.379943082145743, 23.803432458218779 ], [ 86.370055653853754, 23.793671345177462 ], [ 86.374139025804723, 23.781404319337177 ], [ 86.388109468824453, 23.778897805925627 ], [ 86.397997995328581, 23.788659084729073 ] ] ] } },
{ "type": "Feature", "properties": { "case_id": "CASE_02", "case_type": "persistent", "center_h3_cell": "873c84a90ffffff", "h3_cell": "873c84a96ffffff", "relation": "neighbor", "ring": 1 }, "geometry": { "type": "Polygon", "coordinates": [ [ [ 83.34588492876442, 21.908002816207063 ], [ 83.341781628881549, 21.92027853446486 ], [ 83.328146129044725, 21.92261726177825 ], [ 83.318615459900428, 21.912681276140468 ], [ 83.322718912495276, 21.900406392295583 ], [ 83.3363528818942, 21.898066659554665 ], [ 83.34588492876442, 21.908002816207063 ] ] ] } },
{ "type": "Feature", "properties": { "case_id": "CASE_02", "case_type": "persistent", "center_h3_cell": "873c84a90ffffff", "h3_cell": "873c84a92ffffff", "relation": "neighbor", "ring": 1 }, "geometry": { "type": "Polygon", "coordinates": [ [ [ 83.363624302246322, 21.893382997261078 ], [ 83.35952140404207, 21.905661487088736 ], [ 83.34588492876442, 21.908002816207063 ], [ 83.3363528818942, 21.898066659554665 ], [ 83.340455933946927, 21.885789003826499 ], [ 83.354090879393226, 21.883446670530301 ], [ 83.363624302246322, 21.893382997261078 ] ] ] } },
{ "type": "Feature", "properties": { "case_id": "CASE_02", "case_type": "persistent", "center_h3_cell": "873c84a90ffffff", "h3_cell": "873c84a90ffffff", "relation": "center", "ring": 0 }, "geometry": { "type": "Polygon", "coordinates": [ [ [ 83.369056108986726, 21.915596880002582 ], [ 83.364952963328093, 21.927873431173492 ], [ 83.351314958128611, 21.93021375663854 ], [ 83.341781628881549, 21.92027853446486 ], [ 83.34588492876442, 21.908002816207063 ], [ 83.35952140404207, 21.905661487088736 ], [ 83.369056108986726, 21.915596880002582 ] ] ] } },
{ "type": "Feature", "properties": { "case_id": "CASE_02", "case_type": "persistent", "center_h3_cell": "873c84a90ffffff", "h3_cell": "873c84a95ffffff", "relation": "neighbor", "ring": 1 }, "geometry": { "type": "Polygon", "coordinates": [ [ [ 83.374488950508407, 21.937807886647917 ], [ 83.370385557449339, 21.950082496065694 ], [ 83.356746022237672, 21.952421818403103 ], [ 83.347211410469328, 21.942487534329093 ], [ 83.351314958128611, 21.93021375663854 ], [ 83.364952963328093, 21.927873431173492 ], [ 83.374488950508407, 21.937807886647917 ] ] ] } },
{ "type": "Feature", "properties": { "case_id": "CASE_02", "case_type": "persistent", "center_h3_cell": "873c84a90ffffff", "h3_cell": "873c84a94ffffff", "relation": "neighbor", "ring": 1 }, "geometry": { "type": "Polygon", "coordinates": [ [ [ 83.351314958128611, 21.93021375663854 ], [ 83.347211410469328, 21.942487534329093 ], [ 83.333574380103684, 21.944825256740554 ], [ 83.324042428298, 21.934890206242304 ], [ 83.328146129044725, 21.92261726177825 ], [ 83.341781628881549, 21.92027853446486 ], [ 83.351314958128611, 21.93021375663854 ] ] ] } },
{ "type": "Feature", "properties": { "case_id": "CASE_02", "case_type": "persistent", "center_h3_cell": "873c84a90ffffff", "h3_cell": "873c84a93ffffff", "relation": "neighbor", "ring": 1 }, "geometry": { "type": "Polygon", "coordinates": [ [ [ 83.386797829303617, 21.900974630346546 ], [ 83.382695086460458, 21.91325395277239 ], [ 83.369056108986726, 21.915596880002582 ], [ 83.35952140404207, 21.905661487088736 ], [ 83.363624302246322, 21.893382997261078 ], [ 83.377261750406163, 21.89103906762794 ], [ 83.386797829303617, 21.900974630346546 ] ] ] } },
{ "type": "Feature", "properties": { "case_id": "CASE_02", "case_type": "persistent", "center_h3_cell": "873c84a90ffffff", "h3_cell": "873c84a91ffffff", "relation": "neighbor", "ring": 1 }, "geometry": { "type": "Polygon", "coordinates": [ [ [ 83.39223244730718, 21.923188578712757 ], [ 83.388129457385929, 21.935465961296046 ], [ 83.374488950508407, 21.937807886647917 ], [ 83.364952963328093, 21.927873431173492 ], [ 83.369056108986726, 21.915596880002582 ], [ 83.382695086460458, 21.91325395277239 ], [ 83.39223244730718, 21.923188578712757 ] ] ] } },
{ "type": "Feature", "properties": { "case_id": "CASE_03", "case_type": "persistent", "center_h3_cell": "873c817b2ffffff", "h3_cell": "873c817b6ffffff", "relation": "neighbor", "ring": 1 }, "geometry": { "type": "Polygon", "coordinates": [ [ [ 85.174338968733792, 20.974454091549184 ], [ 85.170273180537492, 20.986945955313885 ], [ 85.156523503859901, 20.989508782307077 ], [ 85.146841084766962, 20.979580613525066 ], [ 85.150907143617985, 20.967089521048212 ], [ 85.164655351288673, 20.964525825937351 ], [ 85.174338968733792, 20.974454091549184 ] ] ] } },
{ "type": "Feature", "properties": { "case_id": "CASE_03", "case_type": "persistent", "center_h3_cell": "873c817b2ffffff", "h3_cell": "873c817b2ffffff", "relation": "center", "ring": 0 }, "geometry": { "type": "Polygon", "coordinates": [ [ [ 85.192154658269502, 20.959394325535289 ], [ 85.188089356566309, 20.971888774648612 ], [ 85.174338968733792, 20.974454091549184 ], [ 85.164655351288673, 20.964525825937351 ], [ 85.168720924785219, 20.952032147648538 ], [ 85.182469844315037, 20.94946596401882 ], [ 85.192154658269502, 20.959394325535289 ] ] ] } },
{ "type": "Feature", "properties": { "case_id": "CASE_03", "case_type": "persistent", "center_h3_cell": "873c817b2ffffff", "h3_cell": "873c814c9ffffff", "relation": "neighbor", "ring": 1 }, "geometry": { "type": "Polygon", "coordinates": [ [ [ 85.1865349316584, 20.936969702493286 ], [ 85.182469844315037, 20.94946596401882 ], [ 85.168720924785219, 20.952032147648538 ], [ 85.159038561239228, 20.942102936799483 ], [ 85.163103919967739, 20.929607447267422 ], [ 85.17685137123847, 20.927040396462875 ], [ 85.1865349316584, 20.936969702493286 ] ] ] } },
{ "type": "Feature", "properties": { "case_id": "CASE_03", "case_type": "persistent", "center_h3_cell": "873c817b2ffffff", "h3_cell": "873c817b0ffffff", "relation": "neighbor", "ring": 1 }, "geometry": { "type": "Polygon", "coordinates": [ [ [ 85.197775424167006, 20.981816187923503 ], [ 85.193709908172423, 20.994308821344191 ], [ 85.179958051993808, 20.996873271962372 ], [ 85.170273180537492, 20.986945955313885 ], [ 85.174338968733792, 20.974454091549184 ], [ 85.188089356566309, 20.971888774648612 ], [ 85.197775424167006, 20.981816187923503 ] ] ] } },
{ "type": "Feature", "properties": { "case_id": "CASE_03", "case_type": "persistent", "center_h3_cell": "873c817b2ffffff", "h3_cell": "873c81794ffffff", "relation": "neighbor", "ring": 1 }, "geometry": { "type": "Polygon", "coordinates": [ [ [ 85.209970569026211, 20.944329488492222 ], [ 85.205905754614633, 20.956826520377316 ], [ 85.192154658269502, 20.959394325535289 ], [ 85.182469844315037, 20.94946596401882 ], [ 85.1865349316584, 20.936969702493286 ], [ 85.20028456040599, 20.934401031996394 ], [ 85.209970569026211, 20.944329488492222 ] ] ] } },
{ "type": "Feature", "properties": { "case_id": "CASE_03", "case_type": "persistent", "center_h3_cell": "873c817b2ffffff", "h3_cell": "873c817b3ffffff", "relation": "neighbor", "ring": 1 }, "geometry": { "type": "Polygon", "coordinates": [ [ [ 85.215593016515427, 20.966754029354348 ], [ 85.211527988152682, 20.979249247658792 ], [ 85.197775424167006, 20.981816187923503 ], [ 85.188089356566309, 20.971888774648612 ], [ 85.192154658269502, 20.959394325535289 ], [ 85.205905754614633, 20.956826520377316 ], [ 85.215593016515427, 20.966754029354348 ] ] ] } },
{ "type": "Feature", "properties": { "case_id": "CASE_03", "case_type": "persistent", "center_h3_cell": "873c817b2ffffff", "h3_cell": "873c814cdffffff", "relation": "neighbor", "ring": 1 }, "geometry": { "type": "Polygon", "coordinates": [ [ [ 85.168720924785219, 20.952032147648538 ], [ 85.164655351288673, 20.964525825937351 ], [ 85.150907143617985, 20.967089521048212 ], [ 85.141225978788057, 20.957160406306684 ], [ 85.145291822531433, 20.944667500474782 ], [ 85.159038561239228, 20.942102936799483 ], [ 85.168720924785219, 20.952032147648538 ] ] ] } },
{ "type": "Feature", "properties": { "case_id": "CASE_04", "case_type": "persistent", "center_h3_cell": "873ca0402ffffff", "h3_cell": "873ca0415ffffff", "relation": "neighbor", "ring": 1 }, "geometry": { "type": "Polygon", "coordinates": [ [ [ 82.332510715995056, 23.155796074360733 ], [ 82.328379836002256, 23.167862572214588 ], [ 82.314784699925696, 23.170020447971567 ], [ 82.305322012278666, 23.160112895714683 ], [ 82.309452980323613, 23.148047229663604 ], [ 82.323046548330666, 23.145888283945123 ], [ 82.332510715995056, 23.155796074360733 ] ] ] } },
{ "type": "Feature", "properties": { "case_id": "CASE_04", "case_type": "persistent", "center_h3_cell": "873ca0402ffffff", "h3_cell": "873ca0406ffffff", "relation": "neighbor", "ring": 1 }, "geometry": { "type": "Polygon", "coordinates": [ [ [ 82.337845304833394, 23.177769332941327 ], [ 82.333714158179291, 23.189833730570719 ], [ 82.320117453916183, 23.191990536973719 ], [ 82.310653464861062, 23.182084014979619 ], [ 82.314784699925696, 23.170020447971567 ], [ 82.328379836002256, 23.167862572214588 ], [ 82.337845304833394, 23.177769332941327 ] ] ] } },
{ "type": "Feature", "properties": { "case_id": "CASE_04", "case_type": "persistent", "center_h3_cell": "873ca0402ffffff", "h3_cell": "873ca0402ffffff", "relation": "center", "ring": 0 }, "geometry": { "type": "Polygon", "coordinates": [ [ [ 82.355573922551642, 23.163542505256451 ], [ 82.351443132107761, 23.175609833515953 ], [ 82.337845304833394, 23.177769332941327 ], [ 82.328379836002256, 23.167862572214588 ], [ 82.332510715995056, 23.155796074360733 ], [ 82.346106975637539, 23.153635506706252 ], [ 82.355573922551642, 23.163542505256451 ] ] ] } },
{ "type": "Feature", "properties": { "case_id": "CASE_04", "case_type": "persistent", "center_h3_cell": "873ca0402ffffff", "h3_cell": "873ca0400ffffff", "relation": "neighbor", "ring": 1 }, "geometry": { "type": "Polygon", "coordinates": [ [ [ 82.360911380108703, 23.185515799463353 ], [ 82.356780323362457, 23.197581026317604 ], [ 82.343180928339763, 23.199739458121446 ], [ 82.333714158179291, 23.189833730570719 ], [ 82.337845304833394, 23.177769332941327 ], [ 82.351443132107761, 23.175609833515953 ], [ 82.360911380108703, 23.185515799463353 ] ] ] } },
{ "type": "Feature", "properties": { "case_id": "CASE_04", "case_type": "persistent", "center_h3_cell": "873ca0402ffffff", "h3_cell": "873ca0403ffffff", "relation": "neighbor", "ring": 1 }, "geometry": { "type": "Polygon", "coordinates": [ [ [ 82.378642594464168, 23.171286517250543 ], [ 82.374511895066917, 23.183354674517695 ], [ 82.360911380108703, 23.185515799463353 ], [ 82.351443132107761, 23.175609833515953 ], [ 82.355573922551642, 23.163542505256451 ], [ 82.369172870317612, 23.161380313814817 ], [ 82.378642594464168, 23.171286517250543 ] ] ] } },
{ "type": "Feature", "properties": { "case_id": "CASE_04", "case_type": "persistent", "center_h3_cell": "873ca0402ffffff", "h3_cell": "873ca041cffffff", "relation": "neighbor", "ring": 1 }, "geometry": { "type": "Polygon", "coordinates": [ [ [ 82.373303303725692, 23.149310056842225 ], [ 82.369172870317612, 23.161380313814817 ], [ 82.355573922551642, 23.163542505256451 ], [ 82.346106975637539, 23.153635506706252 ], [ 82.350237499733041, 23.1415660799221 ], [ 82.363834880422814, 23.139402821377956 ], [ 82.373303303725692, 23.149310056842225 ] ] ] } },
{ "type": "Feature", "properties": { "case_id": "CASE_04", "case_type": "persistent", "center_h3_cell": "873ca0402ffffff", "h3_cell": "873ca0411ffffff", "relation": "neighbor", "ring": 1 }, "geometry": { "type": "Polygon", "coordinates": [ [ [ 82.350237499733041, 23.1415660799221 ], [ 82.346106975637539, 23.153635506706252 ], [ 82.332510715995056, 23.155796074360733 ], [ 82.323046548330666, 23.145888283945123 ], [ 82.327177161616333, 23.133819688747987 ], [ 82.340771853743547, 23.131658052257908 ], [ 82.350237499733041, 23.1415660799221 ] ] ] } },
{ "type": "Feature", "properties": { "case_id": "CASE_05", "case_type": "persistent", "center_h3_cell": "873cabc1affffff", "h3_cell": "873cabcf4ffffff", "relation": "neighbor", "ring": 1 }, "geometry": { "type": "Polygon", "coordinates": [ [ [ 86.239230041205502, 22.763534393976357 ], [ 86.235158234843283, 22.775907897026926 ], [ 86.221246070294413, 22.778459997745678 ], [ 86.211407163803898, 22.768639377843606 ], [ 86.215479314752457, 22.756266519708511 ], [ 86.229390027999401, 22.753713636416169 ], [ 86.239230041205502, 22.763534393976357 ] ] ] } },
{ "type": "Feature", "properties": { "case_id": "CASE_05", "case_type": "persistent", "center_h3_cell": "873cabc1affffff", "h3_cell": "873cabc18ffffff", "relation": "neighbor", "ring": 1 }, "geometry": { "type": "Polygon", "coordinates": [ [ [ 86.227013881484268, 22.800650111874681 ], [ 86.222941334524833, 22.813018821606434 ], [ 86.209028283127353, 22.815567558492418 ], [ 86.199189231177385, 22.805748368890178 ], [ 86.203262121997597, 22.793380303467039 ], [ 86.217173721301279, 22.790830783193588 ], [ 86.227013881484268, 22.800650111874681 ] ] ] } },
{ "type": "Feature", "properties": { "case_id": "CASE_05", "case_type": "persistent", "center_h3_cell": "873cabc1affffff", "h3_cell": "873cabc1effffff", "relation": "neighbor", "ring": 1 }, "geometry": { "type": "Polygon", "coordinates": [ [ [ 86.203262121997597, 22.793380303467039 ], [ 86.199189231177385, 22.805748368890178 ], [ 86.185278199858573, 22.808295307122709 ], [ 86.17544151260546, 22.798474965011604 ], [ 86.179514745690796, 22.786107545503821 ], [ 86.193424324158286, 22.783559822048041 ], [ 86.203262121997597, 22.793380303467039 ] ] ] } },
{ "type": "Feature", "properties": { "case_id": "CASE_05", "case_type": "persistent", "center_h3_cell": "873cabc1affffff", "h3_cell": "873cabc1bffffff", "relation": "neighbor", "ring": 1 }, "geometry": { "type": "Polygon", "coordinates": [ [ [ 86.244999501322894, 22.785727363963019 ], [ 86.240927497351308, 22.79809879321888 ], [ 86.227013881484268, 22.800650111874681 ], [ 86.217173721301279, 22.790830783193588 ], [ 86.221246070294413, 22.778459997745678 ], [ 86.235158234843283, 22.775907897026926 ], [ 86.244999501322894, 22.785727363963019 ] ] ] } },
{ "type": "Feature", "properties": { "case_id": "CASE_05", "case_type": "persistent", "center_h3_cell": "873cabc1affffff", "h3_cell": "873cabc1affffff", "relation": "center", "ring": 0 }, "geometry": { "type": "Polygon", "coordinates": [ [ [ 86.221246070294413, 22.778459997745678 ], [ 86.217173721301279, 22.790830783193588 ], [ 86.203262121997597, 22.793380303467039 ], [ 86.193424324158286, 22.783559822048041 ], [ 86.197497016577259, 22.771189682016296 ], [ 86.211407163803898, 22.768639377843606 ], [ 86.221246070294413, 22.778459997745678 ] ] ] } },
{ "type": "Feature", "properties": { "case_id": "CASE_05", "case_type": "persistent", "center_h3_cell": "873cabc1affffff", "h3_cell": "873cabca9ffffff", "relation": "neighbor", "ring": 1 }, "geometry": { "type": "Polygon", "coordinates": [ [ [ 86.215479314752457, 22.756266519708511 ], [ 86.211407163803898, 22.768639377843606 ], [ 86.197497016577259, 22.771189682016296 ], [ 86.187660472753464, 22.761367912320377 ], [ 86.191732966693152, 22.748995700709749 ], [ 86.205641661859602, 22.746444612126922 ], [ 86.215479314752457, 22.756266519708511 ] ] ] } },
{ "type": "Feature", "properties": { "case_id": "CASE_05", "case_type": "persistent", "center_h3_cell": "873cabc1affffff", "h3_cell": "873cabcadffffff", "relation": "neighbor", "ring": 1 }, "geometry": { "type": "Polygon", "coordinates": [ [ [ 86.197497016577259, 22.771189682016296 ], [ 86.193424324158286, 22.783559822048041 ], [ 86.179514745690796, 22.786107545503821 ], [ 86.169679312870286, 22.776285914519512 ], [ 86.17375234711993, 22.763916421511421 ], [ 86.187660472753464, 22.761367912320377 ], [ 86.197497016577259, 22.771189682016296 ] ] ] } },
{ "type": "Feature", "properties": { "case_id": "CASE_06", "case_type": "persistent", "center_h3_cell": "8742d9d2effffff", "h3_cell": "8742d9d2affffff", "relation": "neighbor", "ring": 1 }, "geometry": { "type": "Polygon", "coordinates": [ [ [ 72.644403051296493, 21.098934938370942 ], [ 72.650396974085538, 21.088707491929163 ], [ 72.66389528015803, 21.088040510437409 ], [ 72.671403605911891, 21.097600575773445 ], [ 72.665412145104725, 21.107830197792509 ], [ 72.651909895619426, 21.108497579017193 ], [ 72.644403051296493, 21.098934938370942 ] ] ] } },
{ "type": "Feature", "properties": { "case_id": "CASE_06", "case_type": "persistent", "center_h3_cell": "8742d9d2effffff", "h3_cell": "8742d9d2effffff", "relation": "center", "ring": 0 }, "geometry": { "type": "Polygon", "coordinates": [ [ [ 72.624904328188933, 21.109829168987069 ], [ 72.630902239669965, 21.09960053454251 ], [ 72.644403051296493, 21.098934938370942 ], [ 72.651909895619426, 21.108497579017193 ], [ 72.645914444684678, 21.118728390655587 ], [ 72.632409687937638, 21.119394384572249 ], [ 72.624904328188933, 21.109829168987069 ] ] ] } },
{ "type": "Feature", "properties": { "case_id": "CASE_06", "case_type": "persistent", "center_h3_cell": "8742d9d2effffff", "h3_cell": "8742d9d05ffffff", "relation": "neighbor", "ring": 1 }, "geometry": { "type": "Polygon", "coordinates": [ [ [ 72.623399294609712, 21.090038286715803 ], [ 72.629395676326055, 21.079813016981589 ], [ 72.642892545117633, 21.079147818248266 ], [ 72.650396974085538, 21.088707491929163 ], [ 72.644403051296493, 21.098934938370942 ], [ 72.630902239669965, 21.09960053454251 ], [ 72.623399294609712, 21.090038286715803 ] ] ] } },
{ "type": "Feature", "properties": { "case_id": "CASE_06", "case_type": "persistent", "center_h3_cell": "8742d9d2effffff", "h3_cell": "8742d9d23ffffff", "relation": "neighbor", "ring": 1 }, "geometry": { "type": "Polygon", "coordinates": [ [ [ 72.603899555205246, 21.100928555799776 ], [ 72.609899924175508, 21.090702099678328 ], [ 72.623399294609712, 21.090038286715803 ], [ 72.630902239669965, 21.09960053454251 ], [ 72.624904328188933, 21.109829168987069 ], [ 72.61140101321547, 21.110493377399465 ], [ 72.603899555205246, 21.100928555799776 ] ] ] } },
{ "type": "Feature", "properties": { "case_id": "CASE_06", "case_type": "persistent", "center_h3_cell": "8742d9d2effffff", "h3_cell": "8742d9d2cffffff", "relation": "neighbor", "ring": 1 }, "geometry": { "type": "Polygon", "coordinates": [ [ [ 72.626410245937308, 21.129626383017175 ], [ 72.632409687937638, 21.119394384572249 ], [ 72.645914444684678, 21.118728390655587 ], [ 72.653423705895463, 21.12829399725015 ], [ 72.647426726061951, 21.138528173374201 ], [ 72.633918021906936, 21.139194565342994 ], [ 72.626410245937308, 21.129626383017175 ] ] ] } },
{ "type": "Feature", "properties": { "case_id": "CASE_06", "case_type": "persistent", "center_h3_cell": "8742d9d2effffff", "h3_cell": "8742d9d28ffffff", "relation": "neighbor", "ring": 1 }, "geometry": { "type": "Polygon", "coordinates": [ [ [ 72.645914444684678, 21.118728390655587 ], [ 72.651909895619426, 21.108497579017193 ], [ 72.665412145104725, 21.107830197792509 ], [ 72.672922888410667, 21.117393228283522 ], [ 72.666929901079371, 21.127626215983732 ], [ 72.653423705895463, 21.12829399725015 ], [ 72.645914444684678, 21.118728390655587 ] ] ] } },
{ "type": "Feature", "properties": { "case_id": "CASE_06", "case_type": "persistent", "center_h3_cell": "8742d9d2effffff", "h3_cell": "8742d9d21ffffff", "relation": "neighbor", "ring": 1 }, "geometry": { "type": "Polygon", "coordinates": [ [ [ 72.605399112107989, 21.120723197034266 ], [ 72.61140101321547, 21.110493377399465 ], [ 72.624904328188933, 21.109829168987069 ], [ 72.632409687937638, 21.119394384572249 ], [ 72.626410245937308, 21.129626383017175 ], [ 72.612902984137364, 21.130290987184534 ], [ 72.605399112107989, 21.120723197034266 ] ] ] } },
{ "type": "Feature", "properties": { "case_id": "CASE_07", "case_type": "persistent", "center_h3_cell": "873c8d8aeffffff", "h3_cell": "873c8d8a1ffffff", "relation": "neighbor", "ring": 1 }, "geometry": { "type": "Polygon", "coordinates": [ [ [ 87.279865995362044, 22.38176892493864 ], [ 87.275820298288906, 22.394244355514338 ], [ 87.261857148559059, 22.396915609755574 ], [ 87.251941105940162, 22.387112136405555 ], [ 87.255987215727842, 22.374637302775557 ], [ 87.269948955816702, 22.371965345401708 ], [ 87.279865995362044, 22.38176892493864 ] ] ] } },
{ "type": "Feature", "properties": { "case_id": "CASE_07", "case_type": "persistent", "center_h3_cell": "873c8d8aeffffff", "h3_cell": "873c8d8aaffffff", "relation": "neighbor", "ring": 1 }, "geometry": { "type": "Polygon", "coordinates": [ [ [ 87.315883125892668, 22.351460154667407 ], [ 87.31183861221146, 22.363940822447276 ], [ 87.297874655658319, 22.366617105111033 ], [ 87.287956621166899, 22.356813420196065 ], [ 87.292001549866612, 22.344333348196493 ], [ 87.305964098436078, 22.341656365183354 ], [ 87.315883125892668, 22.351460154667407 ] ] ] } },
{ "type": "Feature", "properties": { "case_id": "CASE_07", "case_type": "persistent", "center_h3_cell": "873c8d8aeffffff", "h3_cell": "873c8d8aeffffff", "relation": "center", "ring": 0 }, "geometry": { "type": "Polygon", "coordinates": [ [ [ 87.297874655658319, 22.366617105111033 ], [ 87.293829549887661, 22.3790951555901 ], [ 87.279865995362044, 22.38176892493864 ], [ 87.269948955816702, 22.371965345401708 ], [ 87.273994475454032, 22.359487891286399 ], [ 87.287956621166899, 22.356813420196065 ], [ 87.297874655658319, 22.366617105111033 ] ] ] } },
{ "type": "Feature", "properties": { "case_id": "CASE_07", "case_type": "persistent", "center_h3_cell": "873c8d8aeffffff", "h3_cell": "873c8d885ffffff", "relation": "neighbor", "ring": 1 }, "geometry": { "type": "Polygon", "coordinates": [ [ [ 87.292001549866612, 22.344333348196493 ], [ 87.287956621166899, 22.356813420196065 ], [ 87.273994475454032, 22.359487891286399 ], [ 87.26407866766273, 22.349682992436755 ], [ 87.268124009777821, 22.33720351789502 ], [ 87.282084746665547, 22.334528344597004 ], [ 87.292001549866612, 22.344333348196493 ] ] ] } },
{ "type": "Feature", "properties": { "case_id": "CASE_07", "case_type": "persistent", "center_h3_cell": "873c8d8aeffffff", "h3_cell": "873c8d8a3ffffff", "relation": "neighbor", "ring": 1 }, "geometry": { "type": "Polygon", "coordinates": [ [ [ 87.273994475454032, 22.359487891286399 ], [ 87.269948955816702, 22.371965345401708 ], [ 87.255987215727842, 22.374637302775557 ], [ 87.246072405325961, 22.364832509485719 ], [ 87.250118337226795, 22.352355653410253 ], [ 87.26407866766273, 22.349682992436755 ], [ 87.273994475454032, 22.359487891286399 ] ] ] } },
{ "type": "Feature", "properties": { "case_id": "CASE_07", "case_type": "persistent", "center_h3_cell": "873c8d8aeffffff", "h3_cell": "873c8d8a8ffffff", "relation": "neighbor", "ring": 1 }, "geometry": { "type": "Polygon", "coordinates": [ [ [ 87.321758870567535, 22.373743290294691 ], [ 87.317714180267018, 22.386221935460672 ], [ 87.303748815743305, 22.388897518240661 ], [ 87.293829549887661, 22.3790951555901 ], [ 87.297874655658319, 22.366617105111033 ], [ 87.31183861221146, 22.363940822447276 ], [ 87.321758870567535, 22.373743290294691 ] ] ] } },
{ "type": "Feature", "properties": { "case_id": "CASE_07", "case_type": "persistent", "center_h3_cell": "873c8d8aeffffff", "h3_cell": "873c8d8acffffff", "relation": "neighbor", "ring": 1 }, "geometry": { "type": "Polygon", "coordinates": [ [ [ 87.303748815743305, 22.388897518240661 ], [ 87.299703532988289, 22.401373544086759 ], [ 87.285738569662541, 22.404046612160219 ], [ 87.275820298288906, 22.394244355514338 ], [ 87.279865995362044, 22.38176892493864 ], [ 87.293829549887661, 22.3790951555901 ], [ 87.303748815743305, 22.388897518240661 ] ] ] } },
{ "type": "Feature", "properties": { "case_id": "CASE_08", "case_type": "persistent", "center_h3_cell": "873cac690ffffff", "h3_cell": "873cac690ffffff", "relation": "center", "ring": 0 }, "geometry": { "type": "Polygon", "coordinates": [ [ [ 85.0288682105936, 23.729651707906566 ], [ 85.024762060994632, 23.741840175140982 ], [ 85.010895307450966, 23.744216926903146 ], [ 85.001136205137342, 23.734406079628599 ], [ 85.005242620779626, 23.722218288528431 ], [ 85.019107873083584, 23.719840668427381 ], [ 85.0288682105936, 23.729651707906566 ] ] ] } },
{ "type": "Feature", "properties": { "case_id": "CASE_08", "case_type": "persistent", "center_h3_cell": "873cac690ffffff", "h3_cell": "873cac694ffffff", "relation": "neighbor", "ring": 1 }, "geometry": { "type": "Polygon", "coordinates": [ [ [ 85.010895307450966, 23.744216926903146 ], [ 85.006788670080553, 23.756402525474876 ], [ 84.992922665132369, 23.758776600382486 ], [ 84.983164799900592, 23.748965946132248 ], [ 84.987271702143843, 23.736781024091211 ], [ 85.001136205137342, 23.734406079628599 ], [ 85.010895307450966, 23.744216926903146 ] ] ] } },
{ "type": "Feature", "properties": { "case_id": "CASE_08", "case_type": "persistent", "center_h3_cell": "873cac690ffffff", "h3_cell": "873cac692ffffff", "relation": "neighbor", "ring": 1 }, "geometry": { "type": "Polygon", "coordinates": [ [ [ 85.023213801302234, 23.707650010407903 ], [ 85.019107873083584, 23.719840668427381 ], [ 85.005242620779626, 23.722218288528431 ], [ 84.995484798276081, 23.712406119390646 ], [ 84.999590992121384, 23.700216138615453 ], [ 85.013454743234817, 23.697837649592721 ], [ 85.023213801302234, 23.707650010407903 ] ] ] } },
{ "type": "Feature", "properties": { "case_id": "CASE_08", "case_type": "persistent", "center_h3_cell": "873cac690ffffff", "h3_cell": "873cac695ffffff", "relation": "neighbor", "ring": 1 }, "geometry": { "type": "Polygon", "coordinates": [ [ [ 85.034523678065142, 23.751649889847059 ], [ 85.030417307154892, 23.763836163443763 ], [ 85.016549052322503, 23.766212047450722 ], [ 85.006788670080553, 23.756402525474876 ], [ 85.010895307450966, 23.744216926903146 ], [ 85.024762060994632, 23.741840175140982 ], [ 85.034523678065142, 23.751649889847059 ] ] ] } },
{ "type": "Feature", "properties": { "case_id": "CASE_08", "case_type": "persistent", "center_h3_cell": "873cac690ffffff", "h3_cell": "873cac696ffffff", "relation": "neighbor", "ring": 1 }, "geometry": { "type": "Polygon", "coordinates": [ [ [ 85.005242620779626, 23.722218288528431 ], [ 85.001136205137342, 23.734406079628599 ], [ 84.987271702143843, 23.736781024091211 ], [ 84.977515117088856, 23.726969047451579 ], [ 84.981621797187657, 23.714781933992189 ], [ 84.995484798276081, 23.712406119390646 ], [ 85.005242620779626, 23.722218288528431 ] ] ] } },
{ "type": "Feature", "properties": { "case_id": "CASE_08", "case_type": "persistent", "center_h3_cell": "873cac690ffffff", "h3_cell": "873cac693ffffff", "relation": "neighbor", "ring": 1 }, "geometry": { "type": "Polygon", "coordinates": [ [ [ 85.04684137102889, 23.715080946854293 ], [ 85.042735710023862, 23.727272280609977 ], [ 85.0288682105936, 23.729651707906566 ], [ 85.019107873083584, 23.719840668427381 ], [ 85.023213801302234, 23.707650010407903 ], [ 85.037079800208701, 23.705269715990202 ], [ 85.04684137102889, 23.715080946854293 ] ] ] } },
{ "type": "Feature", "properties": { "case_id": "CASE_08", "case_type": "persistent", "center_h3_cell": "873cac690ffffff", "h3_cell": "873cac691ffffff", "relation": "neighbor", "ring": 1 }, "geometry": { "type": "Polygon", "coordinates": [ [ [ 85.052498560035957, 23.737082187227607 ], [ 85.048392678067728, 23.749271329088952 ], [ 85.034523678065142, 23.751649889847059 ], [ 85.024762060994632, 23.741840175140982 ], [ 85.0288682105936, 23.729651707906566 ], [ 85.042735710023862, 23.727272280609977 ], [ 85.052498560035957, 23.737082187227607 ] ] ] } },
{ "type": "Feature", "properties": { "case_id": "CASE_09", "case_type": "persistent", "center_h3_cell": "8760a1b88ffffff", "h3_cell": "8760a1b8bffffff", "relation": "neighbor", "ring": 1 }, "geometry": { "type": "Polygon", "coordinates": [ [ [ 76.661409958377106, 15.190350219841257 ], [ 76.65738333253914, 15.202639805794281 ], [ 76.644825212389435, 15.204941410002906 ], [ 76.636295273758975, 15.194954911152696 ], [ 76.640321653877564, 15.182666771767053 ], [ 76.652878218618767, 15.180363684654754 ], [ 76.661409958377106, 15.190350219841257 ] ] ] } },
{ "type": "Feature", "properties": { "case_id": "CASE_09", "case_type": "persistent", "center_h3_cell": "8760a1b88ffffff", "h3_cell": "8760a1b8dffffff", "relation": "neighbor", "ring": 1 }, "geometry": { "type": "Polygon", "coordinates": [ [ [ 76.67348901879447, 15.153474941530527 ], [ 76.669462801537634, 15.165767786539405 ], [ 76.65690451766163, 15.168073191283352 ], [ 76.64837400631005, 15.158087232771935 ], [ 76.652399978558222, 15.145795835501671 ], [ 76.664956707439458, 15.143488948994946 ], [ 76.67348901879447, 15.153474941530527 ] ] ] } },
{ "type": "Feature", "properties": { "case_id": "CASE_09", "case_type": "persistent", "center_h3_cell": "8760a1b88ffffff", "h3_cell": "8760a1b8effffff", "relation": "neighbor", "ring": 1 }, "geometry": { "type": "Polygon", "coordinates": [ [ [ 76.699094464808383, 15.183435295412217 ], [ 76.69506767728717, 15.195728680673852 ], [ 76.682504565864733, 15.198033441195008 ], [ 76.673969797463471, 15.188046296758133 ], [ 76.677996341308159, 15.175754356837201 ], [ 76.690557897503908, 15.173448116002653 ], [ 76.699094464808383, 15.183435295412217 ] ] ] } },
{ "type": "Feature", "properties": { "case_id": "CASE_09", "case_type": "persistent", "center_h3_cell": "8760a1b88ffffff", "h3_cell": "8760a1b89ffffff", "relation": "neighbor", "ring": 1 }, "geometry": { "type": "Polygon", "coordinates": [ [ [ 76.65690451766163, 15.168073191283352 ], [ 76.652878218618767, 15.180363684654754 ], [ 76.640321653877564, 15.182666771767053 ], [ 76.631792943644456, 15.172680848505228 ], [ 76.635818996761444, 15.160391802890759 ], [ 76.64837400631005, 15.158087232771935 ], [ 76.65690451766163, 15.168073191283352 ] ] ] } },
{ "type": "Feature", "properties": { "case_id": "CASE_09", "case_type": "persistent", "center_h3_cell": "8760a1b88ffffff", "h3_cell": "8760a1b88ffffff", "relation": "center", "ring": 0 }, "geometry": { "type": "Polygon", "coordinates": [ [ [ 76.677996341308159, 15.175754356837201 ], [ 76.673969797463471, 15.188046296758133 ], [ 76.661409958377106, 15.190350219841257 ], [ 76.652878218618767, 15.180363684654754 ], [ 76.65690451766163, 15.168073191283352 ], [ 76.669462801537634, 15.165767786539405 ], [ 76.677996341308159, 15.175754356837201 ] ] ] } },
{ "type": "Feature", "properties": { "case_id": "CASE_09", "case_type": "persistent", "center_h3_cell": "8760a1b88ffffff", "h3_cell": "8760a1b8affffff", "relation": "neighbor", "ring": 1 }, "geometry": { "type": "Polygon", "coordinates": [ [ [ 76.682504565864733, 15.198033441195008 ], [ 76.678477695431937, 15.21032447250775 ], [ 76.665916300919619, 15.212626914033683 ], [ 76.65738333253914, 15.202639805794281 ], [ 76.661409958377106, 15.190350219841257 ], [ 76.673969797463471, 15.188046296758133 ], [ 76.682504565864733, 15.198033441195008 ] ] ] } },
{ "type": "Feature", "properties": { "case_id": "CASE_09", "case_type": "persistent", "center_h3_cell": "8760a1b88ffffff", "h3_cell": "8760a1b8cffffff", "relation": "neighbor", "ring": 1 }, "geometry": { "type": "Polygon", "coordinates": [ [ [ 76.69458435864459, 15.161153824463687 ], [ 76.690557897503908, 15.173448116002653 ], [ 76.677996341308159, 15.175754356837201 ], [ 76.669462801537634, 15.165767786539405 ], [ 76.67348901879447, 15.153474941530527 ], [ 76.686049019978825, 15.151167220279799 ], [ 76.69458435864459, 15.161153824463687 ] ] ] } },
{ "type": "Feature", "properties": { "case_id": "CASE_10", "case_type": "persistent", "center_h3_cell": "87608b8a6ffffff", "h3_cell": "87608b8a0ffffff", "relation": "neighbor", "ring": 1 }, "geometry": { "type": "Polygon", "coordinates": [ [ [ 73.036938493691466, 18.674552014576207 ], [ 73.032905584108789, 18.686238668887526 ], [ 73.02075409519739, 18.687971197743177 ], [ 73.01263709860919, 18.678018783965012 ], [ 73.016669569476775, 18.666333522137535 ], [ 73.028819475874698, 18.664599281588249 ], [ 73.036938493691466, 18.674552014576207 ] ] ] } },
{ "type": "Feature", "properties": { "case_id": "CASE_10", "case_type": "persistent", "center_h3_cell": "87608b8a6ffffff", "h3_cell": "87608b999ffffff", "relation": "neighbor", "ring": 1 }, "geometry": { "type": "Polygon", "coordinates": [ [ [ 73.073404996778336, 18.66934367258742 ], [ 73.069371580097226, 18.681034530288791 ], [ 73.05721432719703, 18.682770335425094 ], [ 73.049092073963394, 18.672816992565131 ], [ 73.053125053690792, 18.661127526709585 ], [ 73.065280723833183, 18.659390011851873 ], [ 73.073404996778336, 18.66934367258742 ] ] ] } },
{ "type": "Feature", "properties": { "case_id": "CASE_10", "case_type": "persistent", "center_h3_cell": "87608b8a6ffffff", "h3_cell": "87608b8b5ffffff", "relation": "neighbor", "ring": 1 }, "geometry": { "type": "Polygon", "coordinates": [ [ [ 73.061304448341176, 18.704412012552446 ], [ 73.057270733338854, 18.716098635330837 ], [ 73.045113987252051, 18.717830236586206 ], [ 73.036992539438174, 18.707876925258919 ], [ 73.041025816800769, 18.696191692731531 ], [ 73.053180979844484, 18.694458381263811 ], [ 73.061304448341176, 18.704412012552446 ] ] ] } },
{ "type": "Feature", "properties": { "case_id": "CASE_10", "case_type": "persistent", "center_h3_cell": "87608b8a6ffffff", "h3_cell": "87608b8a6ffffff", "relation": "center", "ring": 0 }, "geometry": { "type": "Polygon", "coordinates": [ [ [ 73.05721432719703, 18.682770335425094 ], [ 73.053180979844484, 18.694458381263811 ], [ 73.041025816800769, 18.696191692731531 ], [ 73.032905584108789, 18.686238668887526 ], [ 73.036938493691466, 18.674552014576207 ], [ 73.049092073963394, 18.672816992565131 ], [ 73.05721432719703, 18.682770335425094 ] ] ] } },
{ "type": "Feature", "properties": { "case_id": "CASE_10", "case_type": "persistent", "center_h3_cell": "87608b8a6ffffff", "h3_cell": "87608b8a2ffffff", "relation": "neighbor", "ring": 1 }, "geometry": { "type": "Polygon", "coordinates": [ [ [ 73.041025816800769, 18.696191692731531 ], [ 73.036992539438174, 18.707876925258919 ], [ 73.024839467741842, 18.709607742751064 ], [ 73.016721256420254, 18.699655039062939 ], [ 73.02075409519739, 18.687971197743177 ], [ 73.032905584108789, 18.686238668887526 ], [ 73.041025816800769, 18.696191692731531 ] ] ] } },
{ "type": "Feature", "properties": { "case_id": "CASE_10", "case_type": "persistent", "center_h3_cell": "87608b8a6ffffff", "h3_cell": "87608b99bffffff", "relation": "neighbor", "ring": 1 }, "geometry": { "type": "Polygon", "coordinates": [ [ [ 73.07749706844605, 18.690988480399049 ], [ 73.073463284270275, 18.702677916807421 ], [ 73.061304448341176, 18.704412012552446 ], [ 73.053180979844484, 18.694458381263811 ], [ 73.05721432719703, 18.682770335425094 ], [ 73.069371580097226, 18.681034530288791 ], [ 73.07749706844605, 18.690988480399049 ] ] ] } },
{ "type": "Feature", "properties": { "case_id": "CASE_10", "case_type": "persistent", "center_h3_cell": "87608b8a6ffffff", "h3_cell": "87608b8a4ffffff", "relation": "neighbor", "ring": 1 }, "geometry": { "type": "Polygon", "coordinates": [ [ [ 73.053125053690792, 18.661127526709585 ], [ 73.049092073963394, 18.672816992565131 ], [ 73.036938493691466, 18.674552014576207 ], [ 73.028819475874698, 18.664599281588249 ], [ 73.032852017702254, 18.652911208536047 ], [ 73.045004015473694, 18.651174475652365 ], [ 73.053125053690792, 18.661127526709585 ] ] ] } },
{ "type": "Feature", "properties": { "case_id": "CASE_11", "case_type": "spike", "center_h3_cell": "873c84853ffffff", "h3_cell": "873c84853ffffff", "relation": "center", "ring": 0 }, "geometry": { "type": "Polygon", "coordinates": [ [ [ 83.138466793226598, 22.105195910058512 ], [ 83.134358485169486, 22.117436233955345 ], [ 83.120733352158609, 22.119742620727351 ], [ 83.11121806531483, 22.109809703233129 ], [ 83.115326512819721, 22.097570216200193 ], [ 83.128950108091317, 22.095262809676942 ], [ 83.138466793226598, 22.105195910058512 ] ] ] } },
{ "type": "Feature", "properties": { "case_id": "CASE_11", "case_type": "spike", "center_h3_cell": "873c84853ffffff", "h3_cell": "873c848edffffff", "relation": "neighbor", "ring": 1 }, "geometry": { "type": "Polygon", "coordinates": [ [ [ 83.156200847568002, 22.090643781344216 ], [ 83.152092931722137, 22.10288690509346 ], [ 83.138466793226598, 22.105195910058512 ], [ 83.128950108091317, 22.095262809676942 ], [ 83.133058164521415, 22.083020522497115 ], [ 83.146682765873365, 22.080710499008759 ], [ 83.156200847568002, 22.090643781344216 ] ] ] } },
{ "type": "Feature", "properties": { "case_id": "CASE_11", "case_type": "spike", "center_h3_cell": "873c84853ffffff", "h3_cell": "873c848ecffffff", "relation": "neighbor", "ring": 1 }, "geometry": { "type": "Polygon", "coordinates": [ [ [ 83.133058164521415, 22.083020522497115 ], [ 83.128950108091317, 22.095262809676942 ], [ 83.115326512819721, 22.097570216200193 ], [ 83.105812511991715, 22.087636355712533 ], [ 83.109920707497935, 22.075394906583849 ], [ 83.123542765126587, 22.073086479771188 ], [ 83.133058164521415, 22.083020522497115 ] ] ] } },
{ "type": "Feature", "properties": { "case_id": "CASE_11", "case_type": "spike", "center_h3_cell": "873c84853ffffff", "h3_cell": "873c8485effffff", "relation": "neighbor", "ring": 1 }, "geometry": { "type": "Polygon", "coordinates": [ [ [ 83.161612299029045, 22.112819242131149 ], [ 83.157504131928306, 22.125060401410668 ], [ 83.143876456193382, 22.127368388390643 ], [ 83.134358485169486, 22.117436233955345 ], [ 83.138466793226598, 22.105195910058512 ], [ 83.152092931722137, 22.10288690509346 ], [ 83.161612299029045, 22.112819242131149 ] ] ] } },
{ "type": "Feature", "properties": { "case_id": "CASE_11", "case_type": "spike", "center_h3_cell": "873c84853ffffff", "h3_cell": "873c84850ffffff", "relation": "neighbor", "ring": 1 }, "geometry": { "type": "Polygon", "coordinates": [ [ [ 83.120733352158609, 22.119742620727351 ], [ 83.116624652706975, 22.13198014260184 ], [ 83.10300052772962, 22.134283909945992 ], [ 83.09348664090848, 22.124351176272498 ], [ 83.097595478671465, 22.112114491554767 ], [ 83.11121806531483, 22.109809703233129 ], [ 83.120733352158609, 22.119742620727351 ] ] ] } },
{ "type": "Feature", "properties": { "case_id": "CASE_11", "case_type": "spike", "center_h3_cell": "873c84853ffffff", "h3_cell": "873c84851ffffff", "relation": "neighbor", "ring": 1 }, "geometry": { "type": "Polygon", "coordinates": [ [ [ 83.143876456193382, 22.127368388390643 ], [ 83.139767896561352, 22.139606745942245 ], [ 83.126141225715017, 22.141912113502258 ], [ 83.116624652706975, 22.13198014260184 ], [ 83.120733352158609, 22.119742620727351 ], [ 83.134358485169486, 22.117436233955345 ], [ 83.143876456193382, 22.127368388390643 ] ] ] } },
{ "type": "Feature", "properties": { "case_id": "CASE_11", "case_type": "spike", "center_h3_cell": "873c84853ffffff", "h3_cell": "873c84852ffffff", "relation": "neighbor", "ring": 1 }, "geometry": { "type": "Polygon", "coordinates": [ [ [ 83.115326512819721, 22.097570216200193 ], [ 83.11121806531483, 22.109809703233129 ], [ 83.097595478671465, 22.112114491554767 ], [ 83.088082878140625, 22.102180814239667 ], [ 83.092191463585536, 22.089942165550841 ], [ 83.105812511991715, 22.087636355712533 ], [ 83.115326512819721, 22.097570216200193 ] ] ] } },
{ "type": "Feature", "properties": { "case_id": "CASE_12", "case_type": "spike", "center_h3_cell": "873c5a88cffffff", "h3_cell": "873c5a88effffff", "relation": "neighbor", "ring": 1 }, "geometry": { "type": "Polygon", "coordinates": [ [ [ 95.468983317500218, 27.428686654213809 ], [ 95.465129037018045, 27.440905372851848 ], [ 95.45068621785073, 27.444149118561139 ], [ 95.440098725030168, 27.435174264980059 ], [ 95.4439539738473, 27.422955517787116 ], [ 95.458395747545197, 27.419711652542421 ], [ 95.468983317500218, 27.428686654213809 ] ] ] } },
{ "type": "Feature", "properties": { "case_id": "CASE_12", "case_type": "spike", "center_h3_cell": "873c5a88cffffff", "h3_cell": "873c5a8aaffffff", "relation": "neighbor", "ring": 1 }, "geometry": { "type": "Polygon", "coordinates": [ [ [ 95.457419491320579, 27.465337495407617 ], [ 95.453564226091217, 27.477550897540773 ], [ 95.43911946202148, 27.480792026950056 ], [ 95.428531010013558, 27.471819874545897 ], [ 95.432387243120274, 27.459606444251776 ], [ 95.446830960752962, 27.456365194334975 ], [ 95.457419491320579, 27.465337495407617 ] ] ] } },
{ "type": "Feature", "properties": { "case_id": "CASE_12", "case_type": "spike", "center_h3_cell": "873c5a88cffffff", "h3_cell": "873c5a8abffffff", "relation": "neighbor", "ring": 1 }, "geometry": { "type": "Polygon", "coordinates": [ [ [ 95.482452999446323, 27.471063763695462 ], [ 95.478598703668666, 27.48327713602551 ], [ 95.464153794306995, 27.486520643579595 ], [ 95.453564226091217, 27.477550897540773 ], [ 95.457419491320579, 27.465337495407617 ], [ 95.471863355709232, 27.46209386892858 ], [ 95.482452999446323, 27.471063763695462 ] ] ] } },
{ "type": "Feature", "properties": { "case_id": "CASE_12", "case_type": "spike", "center_h3_cell": "873c5a88cffffff", "h3_cell": "873c5a88dffffff", "relation": "neighbor", "ring": 1 }, "geometry": { "type": "Polygon", "coordinates": [ [ [ 95.500750322810759, 27.455601744380235 ], [ 95.496897005072881, 27.467817760151242 ], [ 95.482452999446323, 27.471063763695462 ], [ 95.471863355709232, 27.46209386892858 ], [ 95.475717643913754, 27.449877822334422 ], [ 95.490160605783714, 27.446631701142504 ], [ 95.500750322810759, 27.455601744380235 ] ] ] } },
{ "type": "Feature", "properties": { "case_id": "CASE_12", "case_type": "spike", "center_h3_cell": "873c5a88cffffff", "h3_cell": "873c5a881ffffff", "relation": "neighbor", "ring": 1 }, "geometry": { "type": "Polygon", "coordinates": [ [ [ 95.45068621785073, 27.444149118561139 ], [ 95.446830960752962, 27.456365194334975 ], [ 95.432387243120274, 27.459606444251776 ], [ 95.421799829665417, 27.45063173902097 ], [ 95.425656054082154, 27.438415635710847 ], [ 95.440098725030168, 27.435174264980059 ], [ 95.45068621785073, 27.444149118561139 ] ] ] } },
{ "type": "Feature", "properties": { "case_id": "CASE_12", "case_type": "spike", "center_h3_cell": "873c5a88cffffff", "h3_cell": "873c5a888ffffff", "relation": "neighbor", "ring": 1 }, "geometry": { "type": "Polygon", "coordinates": [ [ [ 95.494013916357659, 27.434413012704088 ], [ 95.490160605783714, 27.446631701142504 ], [ 95.475717643913754, 27.449877822334422 ], [ 95.465129037018045, 27.440905372851848 ], [ 95.468983317500218, 27.428686654213809 ], [ 95.483425235364862, 27.425440415070206 ], [ 95.494013916357659, 27.434413012704088 ] ] ] } },
{ "type": "Feature", "properties": { "case_id": "CASE_12", "case_type": "spike", "center_h3_cell": "873c5a88cffffff", "h3_cell": "873c5a88cffffff", "relation": "center", "ring": 0 }, "geometry": { "type": "Polygon", "coordinates": [ [ [ 95.475717643913754, 27.449877822334422 ], [ 95.471863355709232, 27.46209386892858 ], [ 95.457419491320579, 27.465337495407617 ], [ 95.446830960752962, 27.456365194334975 ], [ 95.45068621785073, 27.444149118561139 ], [ 95.465129037018045, 27.440905372851848 ], [ 95.475717643913754, 27.449877822334422 ] ] ] } },
{ "type": "Feature", "properties": { "case_id": "CASE_13", "case_type": "spike", "center_h3_cell": "8742cea75ffffff", "h3_cell": "8742cea75ffffff", "relation": "center", "ring": 0 }, "geometry": { "type": "Polygon", "coordinates": [ [ [ 72.560597685299797, 22.988212289579135 ], [ 72.566775348065462, 22.977680194620628 ], [ 72.580658803939457, 22.976994220730113 ], [ 72.588368768810383, 22.986839938139092 ], [ 72.582193699913859, 22.997374266015512 ], [ 72.568306071251158, 22.998060643685708 ], [ 72.560597685299797, 22.988212289579135 ] ] ] } },
{ "type": "Feature", "properties": { "case_id": "CASE_13", "case_type": "spike", "center_h3_cell": "8742cea75ffffff", "h3_cell": "8742ceb5bffffff", "relation": "neighbor", "ring": 1 }, "geometry": { "type": "Polygon", "coordinates": [ [ [ 72.540529713210873, 22.999429800408588 ], [ 72.546711593083472, 22.988896667197491 ], [ 72.560597685299797, 22.988212289579135 ], [ 72.568306071251158, 22.998060643685708 ], [ 72.562126783672795, 23.008596011494792 ], [ 72.548236516821987, 23.009280790719362 ], [ 72.540529713210873, 22.999429800408588 ] ] ] } },
{ "type": "Feature", "properties": { "case_id": "CASE_13", "case_type": "spike", "center_h3_cell": "8742cea75ffffff", "h3_cell": "8742cea71ffffff", "relation": "neighbor", "ring": 1 }, "geometry": { "type": "Polygon", "coordinates": [ [ [ 72.580658803939457, 22.976994220730113 ], [ 72.58683225060355, 22.966463167169245 ], [ 72.600713067723859, 22.965775599658553 ], [ 72.608424608095788, 22.975618679879329 ], [ 72.602253756871761, 22.986151964677671 ], [ 72.588368768810383, 22.986839938139092 ], [ 72.580658803939457, 22.976994220730113 ] ] ] } },
{ "type": "Feature", "properties": { "case_id": "CASE_13", "case_type": "spike", "center_h3_cell": "8742cea75ffffff", "h3_cell": "8742cea74ffffff", "relation": "neighbor", "ring": 1 }, "geometry": { "type": "Polygon", "coordinates": [ [ [ 72.53900733680446, 22.979048548431784 ], [ 72.545187590111965, 22.96851868766527 ], [ 72.559069510182596, 22.967834711352509 ], [ 72.566775348065462, 22.977680194620628 ], [ 72.560597685299797, 22.988212289579135 ], [ 72.546711593083472, 22.988896667197491 ], [ 72.53900733680446, 22.979048548431784 ] ] ] } },
{ "type": "Feature", "properties": { "case_id": "CASE_13", "case_type": "spike", "center_h3_cell": "8742cea75ffffff", "h3_cell": "8742cea62ffffff", "relation": "neighbor", "ring": 1 }, "geometry": { "type": "Polygon", "coordinates": [ [ [ 72.582193699913859, 22.997374266015512 ], [ 72.588368768810383, 22.986839938139092 ], [ 72.602253756871761, 22.986151964677671 ], [ 72.609967848438657, 22.99599791295886 ], [ 72.603795376738759, 23.00653447247613 ], [ 72.589906215249059, 23.007222852192786 ], [ 72.582193699913859, 22.997374266015512 ] ] ] } },
{ "type": "Feature", "properties": { "case_id": "CASE_13", "case_type": "spike", "center_h3_cell": "8742cea75ffffff", "h3_cell": "8742cea66ffffff", "relation": "neighbor", "ring": 1 }, "geometry": { "type": "Polygon", "coordinates": [ [ [ 72.562126783672795, 23.008596011494792 ], [ 72.568306071251158, 22.998060643685708 ], [ 72.582193699913859, 22.997374266015512 ], [ 72.589906215249059, 23.007222852192786 ], [ 72.583729523295219, 23.017760453323916 ], [ 72.569837719354652, 23.018447235076486 ], [ 72.562126783672795, 23.008596011494792 ] ] ] } },
{ "type": "Feature", "properties": { "case_id": "CASE_13", "case_type": "spike", "center_h3_cell": "8742cea75ffffff", "h3_cell": "8742cea70ffffff", "relation": "neighbor", "ring": 1 }, "geometry": { "type": "Polygon", "coordinates": [ [ [ 72.559069510182596, 22.967834711352509 ], [ 72.565245548962267, 22.957305890304358 ], [ 72.579124834534412, 22.956620319891005 ], [ 72.58683225060355, 22.966463167169245 ], [ 72.580658803939457, 22.976994220730113 ], [ 72.566775348065462, 22.977680194620628 ], [ 72.559069510182596, 22.967834711352509 ] ] ] } },
{ "type": "Feature", "properties": { "case_id": "CASE_14", "case_type": "spike", "center_h3_cell": "873cac4cbffffff", "h3_cell": "873cac4cbffffff", "relation": "center", "ring": 0 }, "geometry": { "type": "Polygon", "coordinates": [ [ [ 84.855845091619685, 23.816587103265377 ], [ 84.851735030797514, 23.828754085883585 ], [ 84.83787812729507, 23.831108457976082 ], [ 84.828132792539748, 23.821296727718142 ], [ 84.832243108039677, 23.809130426967446 ], [ 84.846098504007756, 23.806775174466619 ], [ 84.855845091619685, 23.816587103265377 ] ] ] } },
{ "type": "Feature", "properties": { "case_id": "CASE_14", "case_type": "spike", "center_h3_cell": "873cac4cbffffff", "h3_cell": "873cac4c8ffffff", "relation": "neighbor", "ring": 1 }, "geometry": { "type": "Polygon", "coordinates": [ [ [ 84.83787812729507, 23.831108457976082 ], [ 84.833767586808349, 23.843272556292881 ], [ 84.819911457668795, 23.84562424224228 ], [ 84.81016737764655, 23.835812711345959 ], [ 84.814278171640254, 23.823649295279139 ], [ 84.828132792539748, 23.821296727718142 ], [ 84.83787812729507, 23.831108457976082 ] ] ] } },
{ "type": "Feature", "properties": { "case_id": "CASE_14", "case_type": "spike", "center_h3_cell": "873cac4cbffffff", "h3_cell": "873caeb65ffffff", "relation": "neighbor", "ring": 1 }, "geometry": { "type": "Polygon", "coordinates": [ [ [ 84.873812347116242, 23.802060181503915 ], [ 84.869702766783078, 23.814230046315416 ], [ 84.855845091619685, 23.816587103265377 ], [ 84.846098504007756, 23.806775174466619 ], [ 84.85020834018934, 23.794605991138582 ], [ 84.864064508525047, 23.792248054985262 ], [ 84.873812347116242, 23.802060181503915 ] ] ] } },
{ "type": "Feature", "properties": { "case_id": "CASE_14", "case_type": "spike", "center_h3_cell": "873cac4cbffffff", "h3_cell": "873caeb64ffffff", "relation": "neighbor", "ring": 1 }, "geometry": { "type": "Polygon", "coordinates": [ [ [ 84.85020834018934, 23.794605991138582 ], [ 84.846098504007756, 23.806775174466619 ], [ 84.832243108039677, 23.809130426967446 ], [ 84.822499056124201, 23.799317376999014 ], [ 84.826609146569908, 23.787148876650125 ], [ 84.840463035057425, 23.784792743150117 ], [ 84.85020834018934, 23.794605991138582 ] ] ] } },
{ "type": "Feature", "properties": { "case_id": "CASE_14", "case_type": "spike", "center_h3_cell": "873cac4cbffffff", "h3_cell": "873cac796ffffff", "relation": "neighbor", "ring": 1 }, "geometry": { "type": "Polygon", "coordinates": [ [ [ 84.879451887614437, 23.824040850737099 ], [ 84.875342083054804, 23.8362085137279 ], [ 84.861482901010532, 23.838564692065148 ], [ 84.851735030797514, 23.828754085883585 ], [ 84.855845091619685, 23.816587103265377 ], [ 84.869702766783078, 23.814230046315416 ], [ 84.879451887614437, 23.824040850737099 ] ] ] } },
{ "type": "Feature", "properties": { "case_id": "CASE_14", "case_type": "spike", "center_h3_cell": "873cac4cbffffff", "h3_cell": "873cac4c9ffffff", "relation": "neighbor", "ring": 1 }, "geometry": { "type": "Polygon", "coordinates": [ [ [ 84.861482901010532, 23.838564692065148 ], [ 84.85737261561539, 23.850729471138585 ], [ 84.843514204524965, 23.853082963414511 ], [ 84.833767586808349, 23.843272556292881 ], [ 84.83787812729507, 23.831108457976082 ], [ 84.851735030797514, 23.828754085883585 ], [ 84.861482901010532, 23.838564692065148 ] ] ] } },
{ "type": "Feature", "properties": { "case_id": "CASE_14", "case_type": "spike", "center_h3_cell": "873cac4cbffffff", "h3_cell": "873cac4caffffff", "relation": "neighbor", "ring": 1 }, "geometry": { "type": "Polygon", "coordinates": [ [ [ 84.832243108039677, 23.809130426967446 ], [ 84.828132792539748, 23.821296727718142 ], [ 84.814278171640254, 23.823649295279139 ], [ 84.804535374816936, 23.813836444152631 ], [ 84.808645943410539, 23.801670826763576 ], [ 84.822499056124201, 23.799317376999014 ], [ 84.832243108039677, 23.809130426967446 ] ] ] } },
{ "type": "Feature", "properties": { "case_id": "CASE_15", "case_type": "spike", "center_h3_cell": "873ca54a3ffffff", "h3_cell": "873ca54a0ffffff", "relation": "neighbor", "ring": 1 }, "geometry": { "type": "Polygon", "coordinates": [ [ [ 82.555785842444308, 24.15548073591679 ], [ 82.551642639647639, 24.16744691683423 ], [ 82.537977921617582, 24.169554546853643 ], [ 82.528457980563758, 24.159697038480058 ], [ 82.532601286584708, 24.147731637018506 ], [ 82.546264430808407, 24.145622964346163 ], [ 82.555785842444308, 24.15548073591679 ] ] ] } },
{ "type": "Feature", "properties": { "case_id": "CASE_15", "case_type": "spike", "center_h3_cell": "873ca54a3ffffff", "h3_cell": "873ca54a2ffffff", "relation": "neighbor", "ring": 1 }, "geometry": { "type": "Polygon", "coordinates": [ [ [ 82.550407368697563, 24.133654558132214 ], [ 82.546264430808407, 24.145622964346163 ], [ 82.532601286584708, 24.147731637018506 ], [ 82.523082654316752, 24.137872946656056 ], [ 82.52722569506335, 24.125905321051778 ], [ 82.540887265593554, 24.123795605071937 ], [ 82.550407368697563, 24.133654558132214 ] ] ] } },
{ "type": "Feature", "properties": { "case_id": "CASE_15", "case_type": "spike", "center_h3_cell": "873ca54a3ffffff", "h3_cell": "873ca5485ffffff", "relation": "neighbor", "ring": 1 }, "geometry": { "type": "Polygon", "coordinates": [ [ [ 82.591403875018045, 24.127315875884335 ], [ 82.587261411625548, 24.139288064087733 ], [ 82.573594494709823, 24.141401178020725 ], [ 82.564071614218506, 24.131543144117597 ], [ 82.568214183141748, 24.119571734942308 ], [ 82.581879527399039, 24.117457580513467 ], [ 82.591403875018045, 24.127315875884335 ] ] ] } },
{ "type": "Feature", "properties": { "case_id": "CASE_15", "case_type": "spike", "center_h3_cell": "873ca54a3ffffff", "h3_cell": "873ca54a3ffffff", "relation": "center", "ring": 0 }, "geometry": { "type": "Polygon", "coordinates": [ [ [ 82.573594494709823, 24.141401178020725 ], [ 82.569451661198144, 24.153370363477443 ], [ 82.555785842444308, 24.15548073591679 ], [ 82.546264430808407, 24.145622964346163 ], [ 82.550407368697563, 24.133654558132214 ], [ 82.564071614218506, 24.131543144117597 ], [ 82.573594494709823, 24.141401178020725 ] ] ] } },
{ "type": "Feature", "properties": { "case_id": "CASE_15", "case_type": "spike", "center_h3_cell": "873ca54a3ffffff", "h3_cell": "873ca54a1ffffff", "relation": "neighbor", "ring": 1 }, "geometry": { "type": "Polygon", "coordinates": [ [ [ 82.578975850127065, 24.163227213004905 ], [ 82.574832752075295, 24.175194172012027 ], [ 82.561165359976229, 24.177303503530656 ], [ 82.551642639647639, 24.16744691683423 ], [ 82.555785842444308, 24.15548073591679 ], [ 82.569451661198144, 24.153370363477443 ], [ 82.578975850127065, 24.163227213004905 ] ] ] } },
{ "type": "Feature", "properties": { "case_id": "CASE_15", "case_type": "spike", "center_h3_cell": "873ca54a3ffffff", "h3_cell": "873ca54aeffffff", "relation": "neighbor", "ring": 1 }, "geometry": { "type": "Polygon", "coordinates": [ [ [ 82.596787067426291, 24.149145175582532 ], [ 82.592644339813077, 24.161115138914276 ], [ 82.578975850127065, 24.163227213004905 ], [ 82.569451661198144, 24.153370363477443 ], [ 82.573594494709823, 24.141401178020725 ], [ 82.587261411625548, 24.139288064087733 ], [ 82.596787067426291, 24.149145175582532 ] ] ] } },
{ "type": "Feature", "properties": { "case_id": "CASE_15", "case_type": "spike", "center_h3_cell": "873ca54a3ffffff", "h3_cell": "873ca5484ffffff", "relation": "neighbor", "ring": 1 }, "geometry": { "type": "Polygon", "coordinates": [ [ [ 82.568214183141748, 24.119571734942308 ], [ 82.564071614218506, 24.131543144117597 ], [ 82.550407368697563, 24.133654558132214 ], [ 82.540887265593554, 24.123795605071937 ], [ 82.545029938527065, 24.11182497629316 ], [ 82.558692610927523, 24.109712520049769 ], [ 82.568214183141748, 24.119571734942308 ] ] ] } },
{ "type": "Feature", "properties": { "case_id": "CASE_16", "case_type": "spike", "center_h3_cell": "873c83a66ffffff", "h3_cell": "873c83a75ffffff", "relation": "neighbor", "ring": 1 }, "geometry": { "type": "Polygon", "coordinates": [ [ [ 85.288723494217777, 20.74159055274955 ], [ 85.284662680888232, 20.754111981653669 ], [ 85.270914705321275, 20.756698970664775 ], [ 85.261229006610719, 20.746765389788827 ], [ 85.26529009765197, 20.734244734268369 ], [ 85.279036610073334, 20.731656886112525 ], [ 85.288723494217777, 20.74159055274955 ] ] ] } },
{ "type": "Feature", "properties": { "case_id": "CASE_16", "case_type": "spike", "center_h3_cell": "873c83a66ffffff", "h3_cell": "873c83a64ffffff", "relation": "neighbor", "ring": 1 }, "geometry": { "type": "Polygon", "coordinates": [ [ [ 85.299979175273307, 20.786496182396895 ], [ 85.295917937505422, 20.79901403932497 ], [ 85.28216703552485, 20.801599311350383 ], [ 85.272478834920832, 20.791667584594929 ], [ 85.276540351219225, 20.779150498710454 ], [ 85.290289789972633, 20.77656436840984 ], [ 85.299979175273307, 20.786496182396895 ] ] ] } },
{ "type": "Feature", "properties": { "case_id": "CASE_16", "case_type": "spike", "center_h3_cell": "873c83a66ffffff", "h3_cell": "873c83a66ffffff", "relation": "center", "ring": 0 }, "geometry": { "type": "Polygon", "coordinates": [ [ [ 85.294350815555944, 20.764044723838676 ], [ 85.290289789972633, 20.77656436840984 ], [ 85.276540351219225, 20.779150498710454 ], [ 85.266853401616956, 20.769217843022538 ], [ 85.270914705321275, 20.756698970664775 ], [ 85.284662680888232, 20.754111981653669 ], [ 85.294350815555944, 20.764044723838676 ] ] ] } },
{ "type": "Feature", "properties": { "case_id": "CASE_16", "case_type": "spike", "center_h3_cell": "873c83a66ffffff", "h3_cell": "873c83a60ffffff", "relation": "neighbor", "ring": 1 }, "geometry": { "type": "Polygon", "coordinates": [ [ [ 85.317791515304805, 20.771388022849091 ], [ 85.313730769388826, 20.783908437987662 ], [ 85.299979175273307, 20.786496182396895 ], [ 85.290289789972633, 20.77656436840984 ], [ 85.294350815555944, 20.764044723838676 ], [ 85.308100947154145, 20.7614561225591 ], [ 85.317791515304805, 20.771388022849091 ] ] ] } },
{ "type": "Feature", "properties": { "case_id": "CASE_16", "case_type": "spike", "center_h3_cell": "873c83a66ffffff", "h3_cell": "873c83a62ffffff", "relation": "neighbor", "ring": 1 }, "geometry": { "type": "Polygon", "coordinates": [ [ [ 85.312161481226141, 20.748933921917853 ], [ 85.308100947154145, 20.7614561225591 ], [ 85.294350815555944, 20.764044723838676 ], [ 85.284662680888232, 20.754111981653669 ], [ 85.288723494217777, 20.74159055274955 ], [ 85.302472163338891, 20.739001094165413 ], [ 85.312161481226141, 20.748933921917853 ] ] ] } },
{ "type": "Feature", "properties": { "case_id": "CASE_16", "case_type": "spike", "center_h3_cell": "873c83a66ffffff", "h3_cell": "873c83b59ffffff", "relation": "neighbor", "ring": 1 }, "geometry": { "type": "Polygon", "coordinates": [ [ [ 85.276540351219225, 20.779150498710454 ], [ 85.272478834920832, 20.791667584594929 ], [ 85.258730091654513, 20.794251242231201 ], [ 85.249044328962839, 20.784318673969942 ], [ 85.253106122245583, 20.771802360773567 ], [ 85.266853401616956, 20.769217843022538 ], [ 85.276540351219225, 20.779150498710454 ] ] ] } },
{ "type": "Feature", "properties": { "case_id": "CASE_16", "case_type": "spike", "center_h3_cell": "873c83a66ffffff", "h3_cell": "873c83b5bffffff", "relation": "neighbor", "ring": 1 }, "geometry": { "type": "Polygon", "coordinates": [ [ [ 85.270914705321275, 20.756698970664775 ], [ 85.266853401616956, 20.769217843022538 ], [ 85.253106122245583, 20.771802360773567 ], [ 85.243421610813357, 20.761868866589271 ], [ 85.247483191092996, 20.749350768089947 ], [ 85.261229006610719, 20.746765389788827 ], [ 85.270914705321275, 20.756698970664775 ] ] ] } },
{ "type": "Feature", "properties": { "case_id": "CASE_17", "case_type": "vegetation_comparison", "center_h3_cell": "873ca54f0ffffff", "h3_cell": "873ca54f3ffffff", "relation": "neighbor", "ring": 1 }, "geometry": { "type": "Polygon", "coordinates": [ [ [ 82.702037301308991, 24.144165195693979 ], [ 82.697895650834056, 24.156143486379086 ], [ 82.684217001389769, 24.158266159942766 ], [ 82.674681573004079, 24.148411575166012 ], [ 82.678823336256173, 24.136434057804852 ], [ 82.692500415491381, 24.134310351767216 ], [ 82.702037301308991, 24.144165195693979 ] ] ] } },
{ "type": "Feature", "properties": { "case_id": "CASE_17", "case_type": "vegetation_comparison", "center_h3_cell": "873ca54f0ffffff", "h3_cell": "873ca54f6ffffff", "relation": "neighbor", "ring": 1 }, "geometry": { "type": "Polygon", "coordinates": [ [ [ 82.661005577366353, 24.150532541145246 ], [ 82.656863439698441, 24.16250705821421 ], [ 82.64318853022769, 24.164625283193423 ], [ 82.633657330059378, 24.154770026267826 ], [ 82.637799577825177, 24.142796284116766 ], [ 82.651472916035587, 24.140677023844312 ], [ 82.661005577366353, 24.150532541145246 ] ] ] } },
{ "type": "Feature", "properties": { "case_id": "CASE_17", "case_type": "vegetation_comparison", "center_h3_cell": "873ca54f0ffffff", "h3_cell": "873ca54f4ffffff", "relation": "neighbor", "ring": 1 }, "geometry": { "type": "Polygon", "coordinates": [ [ [ 82.666397408915984, 24.172361382979417 ], [ 82.662255008133883, 24.184333671721681 ], [ 82.648578527292614, 24.186450862061069 ], [ 82.639046018978306, 24.17659679816877 ], [ 82.64318853022769, 24.164625283193423 ], [ 82.656863439698441, 24.16250705821421 ], [ 82.666397408915984, 24.172361382979417 ] ] ] } },
{ "type": "Feature", "properties": { "case_id": "CASE_17", "case_type": "vegetation_comparison", "center_h3_cell": "873ca54f0ffffff", "h3_cell": "873ca54f2ffffff", "relation": "neighbor", "ring": 1 }, "geometry": { "type": "Polygon", "coordinates": [ [ [ 82.678823336256173, 24.136434057804852 ], [ 82.674681573004079, 24.148411575166012 ], [ 82.661005577366353, 24.150532541145246 ], [ 82.651472916035587, 24.140677023844312 ], [ 82.65561479054017, 24.128700281180326 ], [ 82.669289215497344, 24.126578280990977 ], [ 82.678823336256173, 24.136434057804852 ] ] ] } },
{ "type": "Feature", "properties": { "case_id": "CASE_17", "case_type": "vegetation_comparison", "center_h3_cell": "873ca54f0ffffff", "h3_cell": "873ca54f0ffffff", "relation": "center", "ring": 0 }, "geometry": { "type": "Polygon", "coordinates": [ [ [ 82.684217001389769, 24.158266159942766 ], [ 82.680074975344041, 24.170241450557931 ], [ 82.666397408915984, 24.172361382979417 ], [ 82.656863439698441, 24.16250705821421 ], [ 82.661005577366353, 24.150532541145246 ], [ 82.674681573004079, 24.148411575166012 ], [ 82.684217001389769, 24.158266159942766 ] ] ] } },
{ "type": "Feature", "properties": { "case_id": "CASE_17", "case_type": "vegetation_comparison", "center_h3_cell": "873ca54f0ffffff", "h3_cell": "873ca54f5ffffff", "relation": "neighbor", "ring": 1 }, "geometry": { "type": "Polygon", "coordinates": [ [ [ 82.689611711515326, 24.180094839912528 ], [ 82.685469422725319, 24.192067901050734 ], [ 82.67179028539735, 24.194186800567827 ], [ 82.662255008133883, 24.184333671721681 ], [ 82.666397408915984, 24.172361382979417 ], [ 82.680074975344041, 24.170241450557931 ], [ 82.689611711515326, 24.180094839912528 ] ] ] } },
{ "type": "Feature", "properties": { "case_id": "CASE_17", "case_type": "vegetation_comparison", "center_h3_cell": "873ca54f0ffffff", "h3_cell": "873ca54f1ffffff", "relation": "neighbor", "ring": 1 }, "geometry": { "type": "Polygon", "coordinates": [ [ [ 82.707433844176165, 24.165997135381645 ], [ 82.70329193127786, 24.177973198170477 ], [ 82.689611711515326, 24.180094839912528 ], [ 82.680074975344041, 24.170241450557931 ], [ 82.684217001389769, 24.158266159942766 ], [ 82.697895650834056, 24.156143486379086 ], [ 82.707433844176165, 24.165997135381645 ] ] ] } },
{ "type": "Feature", "properties": { "case_id": "CASE_18", "case_type": "vegetation_comparison", "center_h3_cell": "876096116ffffff", "h3_cell": "876096c49ffffff", "relation": "neighbor", "ring": 1 }, "geometry": { "type": "Polygon", "coordinates": [ [ [ 79.207449990791076, 21.258833003942701 ], [ 79.203332090329738, 21.270856289769558 ], [ 79.190175801654888, 21.272872376092227 ], [ 79.181139014918799, 21.262866484702261 ], [ 79.185256807873571, 21.250844253160064 ], [ 79.19841149539613, 21.248826858636296 ], [ 79.207449990791076, 21.258833003942701 ] ] ] } },
{ "type": "Feature", "properties": { "case_id": "CASE_18", "case_type": "vegetation_comparison", "center_h3_cell": "876096116ffffff", "h3_cell": "876096114ffffff", "relation": "neighbor", "ring": 1 }, "geometry": { "type": "Polygon", "coordinates": [ [ [ 79.185256807873571, 21.250844253160064 ], [ 79.181139014918799, 21.262866484702261 ], [ 79.167985835485339, 21.264881257536636 ], [ 79.158952050658158, 21.254875108536865 ], [ 79.163069734774524, 21.242853932566717 ], [ 79.176221312881268, 21.240837849937648 ], [ 79.185256807873571, 21.250844253160064 ] ] ] } },
{ "type": "Feature", "properties": { "case_id": "CASE_18", "case_type": "vegetation_comparison", "center_h3_cell": "876096116ffffff", "h3_cell": "876096110ffffff", "relation": "neighbor", "ring": 1 }, "geometry": { "type": "Polygon", "coordinates": [ [ [ 79.167985835485339, 21.264881257536636 ], [ 79.163867841602652, 21.276900612408213 ], [ 79.150716172457706, 21.278912762765582 ], [ 79.141684099203459, 21.268906869023432 ], [ 79.145801983196591, 21.25688856975291 ], [ 79.158952050658158, 21.254875108536865 ], [ 79.167985835485339, 21.264881257536636 ] ] ] } },
{ "type": "Feature", "properties": { "case_id": "CASE_18", "case_type": "vegetation_comparison", "center_h3_cell": "876096116ffffff", "h3_cell": "8760961a5ffffff", "relation": "neighbor", "ring": 1 }, "geometry": { "type": "Polygon", "coordinates": [ [ [ 79.19509577789627, 21.294898161257841 ], [ 79.190977365988061, 21.306916745040695 ], [ 79.177820983350529, 21.308928899873361 ], [ 79.168784614640074, 21.298923779571915 ], [ 79.172902918270054, 21.286906248847295 ], [ 79.186057699213777, 21.284892785278824 ], [ 79.19509577789627, 21.294898161257841 ] ] ] } },
{ "type": "Feature", "properties": { "case_id": "CASE_18", "case_type": "vegetation_comparison", "center_h3_cell": "876096116ffffff", "h3_cell": "876096c4bffffff", "relation": "neighbor", "ring": 1 }, "geometry": { "type": "Polygon", "coordinates": [ [ [ 79.212371877573688, 21.280861920392535 ], [ 79.208253667906547, 21.292883382607123 ], [ 79.19509577789627, 21.294898161257841 ], [ 79.186057699213777, 21.284892785278824 ], [ 79.190175801654888, 21.272872376092227 ], [ 79.203332090329738, 21.270856289769558 ], [ 79.212371877573688, 21.280861920392535 ] ] ] } },
{ "type": "Feature", "properties": { "case_id": "CASE_18", "case_type": "vegetation_comparison", "center_h3_cell": "876096116ffffff", "h3_cell": "876096112ffffff", "relation": "neighbor", "ring": 1 }, "geometry": { "type": "Polygon", "coordinates": [ [ [ 79.172902918270054, 21.286906248847295 ], [ 79.168784614640074, 21.298923779571915 ], [ 79.155631343627832, 21.300934619600323 ], [ 79.146597978437626, 21.290929239146237 ], [ 79.150716172457706, 21.278912762765582 ], [ 79.163867841602652, 21.276900612408213 ], [ 79.172902918270054, 21.286906248847295 ] ] ] } },
{ "type": "Feature", "properties": { "case_id": "CASE_18", "case_type": "vegetation_comparison", "center_h3_cell": "876096116ffffff", "h3_cell": "876096116ffffff", "relation": "center", "ring": 0 }, "geometry": { "type": "Polygon", "coordinates": [ [ [ 79.190175801654888, 21.272872376092227 ], [ 79.186057699213777, 21.284892785278824 ], [ 79.172902918270054, 21.286906248847295 ], [ 79.163867841602652, 21.276900612408213 ], [ 79.167985835485339, 21.264881257536636 ], [ 79.181139014918799, 21.262866484702261 ], [ 79.190175801654888, 21.272872376092227 ] ] ] } },
{ "type": "Feature", "properties": { "case_id": "CASE_19", "case_type": "vegetation_comparison", "center_h3_cell": "873c5ac74ffffff", "h3_cell": "873c5ad5affffff", "relation": "neighbor", "ring": 1 }, "geometry": { "type": "Polygon", "coordinates": [ [ [ 95.273651889525937, 27.324812967737667 ], [ 95.269790899560746, 27.337039841238248 ], [ 95.25535240148362, 27.340267365795878 ], [ 95.244775950174471, 27.33126814825847 ], [ 95.248637895765327, 27.319041259622459 ], [ 95.263075337436163, 27.315813603471849 ], [ 95.273651889525937, 27.324812967737667 ] ] ] } },
{ "type": "Feature", "properties": { "case_id": "CASE_19", "case_type": "vegetation_comparison", "center_h3_cell": "873c5ac74ffffff", "h3_cell": "873c5ac75ffffff", "relation": "neighbor", "ring": 1 }, "geometry": { "type": "Polygon", "coordinates": [ [ [ 95.31696408493714, 27.315118042193866 ], [ 95.313105022065471, 27.327347540437607 ], [ 95.29866721167987, 27.330579928120759 ], [ 95.288089518306506, 27.321582946086387 ], [ 95.291949539403745, 27.309353430047672 ], [ 95.306386296044792, 27.306120913650851 ], [ 95.31696408493714, 27.315118042193866 ] ] ] } },
{ "type": "Feature", "properties": { "case_id": "CASE_19", "case_type": "vegetation_comparison", "center_h3_cell": "873c5ac74ffffff", "h3_cell": "873c5ac70ffffff", "relation": "neighbor", "ring": 1 }, "geometry": { "type": "Polygon", "coordinates": [ [ [ 95.310245347662274, 27.29388875769714 ], [ 95.306386296044792, 27.306120913650851 ], [ 95.291949539403745, 27.309353430047672 ], [ 95.281372888764167, 27.300353919327122 ], [ 95.285232898050111, 27.28812174621617 ], [ 95.299668600703157, 27.284889100795599 ], [ 95.310245347662274, 27.29388875769714 ] ] ] } },
{ "type": "Feature", "properties": { "case_id": "CASE_19", "case_type": "vegetation_comparison", "center_h3_cell": "873c5ac74ffffff", "h3_cell": "873c5ac76ffffff", "relation": "neighbor", "ring": 1 }, "geometry": { "type": "Polygon", "coordinates": [ [ [ 95.285232898050111, 27.28812174621617 ], [ 95.281372888764167, 27.300353919327122 ], [ 95.266936315180899, 27.303584071287425 ], [ 95.256360806719826, 27.29458218056967 ], [ 95.260221772096244, 27.282349991951996 ], [ 95.274657290239489, 27.279119709371408 ], [ 95.285232898050111, 27.28812174621617 ] ] ] } },
{ "type": "Feature", "properties": { "case_id": "CASE_19", "case_type": "vegetation_comparison", "center_h3_cell": "873c5ac74ffffff", "h3_cell": "873c5ad5bffffff", "relation": "neighbor", "ring": 1 }, "geometry": { "type": "Polygon", "coordinates": [ [ [ 95.29866721167987, 27.330579928120759 ], [ 95.294807178919299, 27.342806784838004 ], [ 95.280368495184476, 27.346036676491671 ], [ 95.269790899560746, 27.337039841238248 ], [ 95.273651889525937, 27.324812967737667 ], [ 95.288089518306506, 27.321582946086387 ], [ 95.29866721167987, 27.330579928120759 ] ] ] } },
{ "type": "Feature", "properties": { "case_id": "CASE_19", "case_type": "vegetation_comparison", "center_h3_cell": "873c5ac74ffffff", "h3_cell": "873c5ac29ffffff", "relation": "neighbor", "ring": 1 }, "geometry": { "type": "Polygon", "coordinates": [ [ [ 95.266936315180899, 27.303584071287425 ], [ 95.263075337436163, 27.315813603471849 ], [ 95.248637895765327, 27.319041259622459 ], [ 95.238062488884225, 27.310039515306801 ], [ 95.241924421697547, 27.297809968625835 ], [ 95.256360806719826, 27.29458218056967 ], [ 95.266936315180899, 27.303584071287425 ] ] ] } },
{ "type": "Feature", "properties": { "case_id": "CASE_19", "case_type": "vegetation_comparison", "center_h3_cell": "873c5ac74ffffff", "h3_cell": "873c5ac74ffffff", "relation": "center", "ring": 0 }, "geometry": { "type": "Polygon", "coordinates": [ [ [ 95.291949539403745, 27.309353430047672 ], [ 95.288089518306506, 27.321582946086387 ], [ 95.273651889525937, 27.324812967737667 ], [ 95.263075337436163, 27.315813603471849 ], [ 95.266936315180899, 27.303584071287425 ], [ 95.281372888764167, 27.300353919327122 ], [ 95.291949539403745, 27.309353430047672 ] ] ] } },
{ "type": "Feature", "properties": { "case_id": "CASE_20", "case_type": "vegetation_comparison", "center_h3_cell": "873c88cdbffffff", "h3_cell": "873c88cdaffffff", "relation": "neighbor", "ring": 1 }, "geometry": { "type": "Polygon", "coordinates": [ [ [ 86.942503604037469, 20.835881507637477 ], [ 86.938471686907619, 20.848492900552529 ], [ 86.924601632267638, 20.851219510001528 ], [ 86.914764902841966, 20.841335454559523 ], [ 86.918797206310828, 20.828724731646322 ], [ 86.932665853255926, 20.825997394034122 ], [ 86.942503604037469, 20.835881507637477 ] ] ] } },
{ "type": "Feature", "properties": { "case_id": "CASE_20", "case_type": "vegetation_comparison", "center_h3_cell": "873c88cdbffffff", "h3_cell": "873c88574ffffff", "relation": "neighbor", "ring": 1 }, "geometry": { "type": "Polygon", "coordinates": [ [ [ 86.960405457388134, 20.820538621027968 ], [ 86.956374109746733, 20.83315248441194 ], [ 86.942503604037469, 20.835881507637477 ], [ 86.932665853255926, 20.825997394034122 ], [ 86.936697588372468, 20.813384200063112 ], [ 86.950566687185002, 20.810654450143311 ], [ 86.960405457388134, 20.820538621027968 ] ] ] } },
{ "type": "Feature", "properties": { "case_id": "CASE_20", "case_type": "vegetation_comparison", "center_h3_cell": "873c88cdbffffff", "h3_cell": "873c88cdbffffff", "relation": "center", "ring": 0 }, "geometry": { "type": "Polygon", "coordinates": [ [ [ 86.966214104829845, 20.843035580528824 ], [ 86.962182575614165, 20.855647641719823 ], [ 86.948310663011497, 20.858375938657328 ], [ 86.938471686907619, 20.848492900552529 ], [ 86.942503604037469, 20.835881507637477 ], [ 86.956374109746733, 20.83315248441194 ], [ 86.966214104829845, 20.843035580528824 ] ] ] } },
{ "type": "Feature", "properties": { "case_id": "CASE_20", "case_type": "vegetation_comparison", "center_h3_cell": "873c88cdbffffff", "h3_cell": "873c88575ffffff", "relation": "neighbor", "ring": 1 }, "geometry": { "type": "Polygon", "coordinates": [ [ [ 86.984117423578937, 20.827690339185846 ], [ 86.980086464987806, 20.840304870255412 ], [ 86.966214104829845, 20.843035580528824 ], [ 86.956374109746733, 20.83315248441194 ], [ 86.960405457388134, 20.820538621027968 ], [ 86.974276411452124, 20.81780718593593 ], [ 86.984117423578937, 20.827690339185846 ] ] ] } },
{ "type": "Feature", "properties": { "case_id": "CASE_20", "case_type": "vegetation_comparison", "center_h3_cell": "873c88cdbffffff", "h3_cell": "873c88566ffffff", "relation": "neighbor", "ring": 1 }, "geometry": { "type": "Polygon", "coordinates": [ [ [ 86.989928701630234, 20.85018694572506 ], [ 86.985897561904267, 20.862799673465254 ], [ 86.972023795656312, 20.865529659326121 ], [ 86.962182575614165, 20.855647641719823 ], [ 86.966214104829845, 20.843035580528824 ], [ 86.980086464987806, 20.840304870255412 ], [ 86.989928701630234, 20.85018694572506 ] ] ] } },
{ "type": "Feature", "properties": { "case_id": "CASE_20", "case_type": "vegetation_comparison", "center_h3_cell": "873c88cdbffffff", "h3_cell": "873c88cd9ffffff", "relation": "neighbor", "ring": 1 }, "geometry": { "type": "Polygon", "coordinates": [ [ [ 86.972023795656312, 20.865529659326121 ], [ 86.96799208494906, 20.878139914989031 ], [ 86.954118765456457, 20.880867486045624 ], [ 86.944278563950846, 20.870985527180732 ], [ 86.948310663011497, 20.858375938657328 ], [ 86.962182575614165, 20.855647641719823 ], [ 86.972023795656312, 20.865529659326121 ] ] ] } },
{ "type": "Feature", "properties": { "case_id": "CASE_20", "case_type": "vegetation_comparison", "center_h3_cell": "873c88cdbffffff", "h3_cell": "873c88cd8ffffff", "relation": "neighbor", "ring": 1 }, "geometry": { "type": "Polygon", "coordinates": [ [ [ 86.948310663011497, 20.858375938657328 ], [ 86.944278563950846, 20.870985527180732 ], [ 86.930407101618826, 20.873711408873845 ], [ 86.920569146429187, 20.863828429660142 ], [ 86.924601632267638, 20.851219510001528 ], [ 86.938471686907619, 20.848492900552529 ], [ 86.948310663011497, 20.858375938657328 ] ] ] } }
]
}
