{
"type": "FeatureCollection",
"name": "pyroclass_prototype_sites",
"crs": { "type": "name", "properties": { "name": "urn:ogc:def:crs:OGC:1.3:CRS84" } },
"features": [
{ "type": "Feature", "properties": { "case_id": "CASE_01", "case_type": "persistent", "latitude": 23.77988, "longitude": 86.38999, "lat_bin": 23.78, "lon_bin": 86.39, "n": 3821.0, "active_days": 813.0, "mean_frp": 2.926445956555876, "median_frp": 2.28, "max_frp": 18.53, "2022": 1140.0, "2023": 1330.0, "2024": 1351.0, "base_monthly": 102.91666666666669, "cur_monthly": 112.58333333333331, "count_ratio": 1.0938359488755864, "p95_ratio": 1.2248595760101471, "spike_score": 0.59097193292223782, "h3_cell": "873ca9c86ffffff" }, "geometry": { "type": "Point", "coordinates": [ 86.38999, 23.77988 ] } },
{ "type": "Feature", "properties": { "case_id": "CASE_02", "case_type": "persistent", "latitude": 21.92001, "longitude": 83.35004, "lat_bin": 21.92, "lon_bin": 83.35, "n": 2724.0, "active_days": 796.0, "mean_frp": 3.6162555066079296, "median_frp": 3.08, "max_frp": 17.39, "2022": 923.0, "2023": 969.0, "2024": 832.0, "base_monthly": 78.833333333333329, "cur_monthly": 69.333333333333329, "count_ratio": 0.87964527027027029, "p95_ratio": 0.88658771005146653, "spike_score": 0.40059244629953, "h3_cell": "873c84a90ffffff" }, "geometry": { "type": "Point", "coordinates": [ 83.35004, 21.92001 ] } },
{ "type": "Feature", "properties": { "case_id": "CASE_03", "case_type": "persistent", "latitude": 20.96012, "longitude": 85.17001, "lat_bin": 20.96, "lon_bin": 85.17, "n": 2269.0, "active_days": 739.0, "mean_frp": 3.3031291317761129, "median_frp": 2.72, "max_frp": 20.43, "2022": 832.0, "2023": 928.0, "2024": 509.0, "base_monthly": 73.333333333333329, "cur_monthly": 42.416666666666657, "count_ratio": 0.57898320472083531, "p95_ratio": 0.90743941917842685, "spike_score": 0.29497174987791841, "h3_cell": "873c817b2ffffff" }, "geometry": { "type": "Point", "coordinates": [ 85.17001, 20.96012 ] } },
{ "type": "Feature", "properties": { "case_id": "CASE_04", "case_type": "persistent", "latitude": 23.17003, "longitude": 82.34002, "lat_bin": 23.17, "lon_bin": 82.34, "n": 1974.0, "active_days": 742.0, "mean_frp": 2.5618642350557246, "median_frp": 2.08, "max_frp": 12.98, "2022": 790.0, "2023": 458.0, "2024": 726.0, "base_monthly": 52.0, "cur_monthly": 60.5, "count_ratio": 1.1631477927063341, "p95_ratio": 1.2168697107783877, "spike_score": 0.61423951408279553, "h3_cell": "873ca0402ffffff" }, "geometry": { "type": "Point", "coordinates": [ 82.34002, 23.17003 ] } },
{ "type": "Feature", "properties": { "case_id": "CASE_05", "case_type": "persistent", "latitude": 22.79002, "longitude": 86.20011, "lat_bin": 22.79, "lon_bin": 86.2, "n": 1708.0, "active_days": 692.0, "mean_frp": 2.6574590163934424, "median_frp": 2.14, "max_frp": 17.31, "2022": 622.0, "2023": 574.0, "2024": 512.0, "base_monthly": 49.833333333333336, "cur_monthly": 42.666666666666657, "count_ratio": 0.85647530040053399, "p95_ratio": 0.86575944154672835, "spike_score": 0.38585083479969068, "h3_cell": "873cabc1affffff" }, "geometry": { "type": "Point", "coordinates": [ 86.20011, 22.79002 ] } },
{ "type": "Feature", "properties": { "case_id": "CASE_06", "case_type": "persistent", "latitude": 21.11006, "longitude": 72.63004, "lat_bin": 21.11, "lon_bin": 72.63, "n": 1694.0, "active_days": 647.0, "mean_frp": 4.3714344746162928, "median_frp": 3.32, "max_frp": 35.99, "2022": 849.0, "2023": 626.0, "2024": 219.0, "base_monthly": 61.458333333333336, "cur_monthly": 18.25, "count_ratio": 0.29809124136997428, "p95_ratio": 0.53107131636820615, "spike_score": 0.1111328038512403, "h3_cell": "8742d9d2effffff" }, "geometry": { "type": "Point", "coordinates": [ 72.63004, 21.11006 ] } },
{ "type": "Feature", "properties": { "case_id": "CASE_07", "case_type": "persistent", "latitude": 22.38007, "longitude": 87.28001, "lat_bin": 22.38, "lon_bin": 87.28, "n": 1474.0, "active_days": 706.0, "mean_frp": 2.530705563093623, "median_frp": 2.11, "max_frp": 13.8, "2022": 378.0, "2023": 460.0, "2024": 636.0, "base_monthly": 34.916666666666664, "cur_monthly": 53.0, "count_ratio": 1.5164207520228463, "p95_ratio": 1.4812538414259371, "spike_score": 0.83864156076872443, "h3_cell": "873c8d8aeffffff" }, "geometry": { "type": "Point", "coordinates": [ 87.28001, 22.38007 ] } },
{ "type": "Feature", "properties": { "case_id": "CASE_08", "case_type": "persistent", "latitude": 23.74009, "longitude": 85.00995, "lat_bin": 23.74, "lon_bin": 85.01, "n": 1534.0, "active_days": 655.0, "mean_frp": 2.248722294654498, "median_frp": 1.81, "max_frp": 15.63, "2022": 425.0, "2023": 618.0, "2024": 491.0, "base_monthly": 43.458333333333336, "cur_monthly": 40.916666666666657, "count_ratio": 0.94164912951980095, "p95_ratio": 1.1367706664153086, "spike_score": 0.50382127633273877, "h3_cell": "873cac690ffffff" }, "geometry": { "type": "Point", "coordinates": [ 85.00995, 23.74009 ] } },
{ "type": "Feature", "properties": { "case_id": "CASE_09", "case_type": "persistent", "latitude": 15.17929, "longitude": 76.66086, "lat_bin": 15.18, "lon_bin": 76.66, "n": 1261.0, "active_days": 631.0, "mean_frp": 2.7761379857256148, "median_frp": 2.43, "max_frp": 14.66, "2022": 398.0, "2023": 493.0, "2024": 370.0, "base_monthly": 37.125, "cur_monthly": 30.833333333333329, "count_ratio": 0.83098276248041192, "p95_ratio": 1.0296833203900253, "spike_score": 0.42816310402044749, "h3_cell": "8760a1b88ffffff" }, "geometry": { "type": "Point", "coordinates": [ 76.66086, 15.17929 ] } },
{ "type": "Feature", "properties": { "case_id": "CASE_10", "case_type": "persistent", "latitude": 18.69005, "longitude": 73.03983, "lat_bin": 18.69, "lon_bin": 73.04, "n": 1289.0, "active_days": 605.0, "mean_frp": 2.729689681923972, "median_frp": 2.25, "max_frp": 11.51, "2022": 433.0, "2023": 460.0, "2024": 396.0, "base_monthly": 37.208333333333336, "cur_monthly": 33.0, "count_ratio": 0.88720125083761447, "p95_ratio": 0.84698501219937328, "spike_score": 0.38966539607358558, "h3_cell": "87608b8a6ffffff" }, "geometry": { "type": "Point", "coordinates": [ 73.03983, 18.69005 ] } },
{ "type": "Feature", "properties": { "case_id": "CASE_11", "case_type": "spike", "latitude": 22.10955, "longitude": 83.11997, "lat_bin": 22.11, "lon_bin": 83.12, "n": 220.0, "active_days": 181.0, "mean_frp": 1.6845, "median_frp": 1.505, "max_frp": 7.08, "2022": 0.0, "2023": 48.0, "2024": 172.0, "base_monthly": 6.8571428571428568, "cur_monthly": 17.2, "count_ratio": 2.4866529774127315, "p95_ratio": 2.8925619834710741, "spike_score": 1.6973968733836826, "h3_cell": "873c84853ffffff" }, "geometry": { "type": "Point", "coordinates": [ 83.11997, 22.10955 ] } },
{ "type": "Feature", "properties": { "case_id": "CASE_12", "case_type": "spike", "latitude": 27.46038, "longitude": 95.47127, "lat_bin": 27.46, "lon_bin": 95.47, "n": 65.0, "active_days": 52.0, "mean_frp": 0.94938461538461538, "median_frp": 0.78, "max_frp": 4.02, "2022": 7.0, "2023": 0.0, "2024": 58.0, "base_monthly": 3.5, "cur_monthly": 8.2857142857142865, "count_ratio": 2.3293650793650795, "p95_ratio": 2.988431876606684, "spike_score": 1.6639258548143565, "h3_cell": "873c5a88cffffff" }, "geometry": { "type": "Point", "coordinates": [ 95.47127, 27.46038 ] } },
{ "type": "Feature", "properties": { "case_id": "CASE_13", "case_type": "spike", "latitude": 22.98076, "longitude": 72.56829, "lat_bin": 22.98, "lon_bin": 72.57, "n": 76.0, "active_days": 71.0, "mean_frp": 1.2868421052631578, "median_frp": 1.125, "max_frp": 5.52, "2022": 0.0, "2023": 3.0, "2024": 73.0, "base_monthly": 3.0, "cur_monthly": 6.083333333333333, "count_ratio": 1.9946236559139785, "p95_ratio": 3.4036045876570169, "spike_score": 1.6259495410262914, "h3_cell": "8742cea75ffffff" }, "geometry": { "type": "Point", "coordinates": [ 72.56829, 22.98076 ] } },
{ "type": "Feature", "properties": { "case_id": "CASE_14", "case_type": "spike", "latitude": 23.81019, "longitude": 84.84819, "lat_bin": 23.81, "lon_bin": 84.85, "n": 223.0, "active_days": 187.0, "mean_frp": 1.5255156950672646, "median_frp": 1.11, "max_frp": 7.73, "2022": 49.0, "2023": 63.0, "2024": 111.0, "base_monthly": 5.0909090909090908, "cur_monthly": 10.090909090909092, "count_ratio": 1.9632224168126096, "p95_ratio": 3.1486146095717884, "spike_score": 1.5455276309105463, "h3_cell": "873cac4cbffffff" }, "geometry": { "type": "Point", "coordinates": [ 84.84819, 23.81019 ] } },
{ "type": "Feature", "properties": { "case_id": "CASE_15", "case_type": "spike", "latitude": 24.13953, "longitude": 82.56152, "lat_bin": 24.14, "lon_bin": 82.56, "n": 39.0, "active_days": 32.0, "mean_frp": 1.5771794871794871, "median_frp": 1.27, "max_frp": 5.2, "2022": 4.0, "2023": 14.0, "2024": 21.0, "base_monthly": 4.5, "cur_monthly": 10.5, "count_ratio": 2.3043478260869565, "p95_ratio": 2.4956413449564137, "spike_score": 1.4958619187512965, "h3_cell": "873ca54a3ffffff" }, "geometry": { "type": "Point", "coordinates": [ 82.56152, 24.13953 ] } },
{ "type": "Feature", "properties": { "case_id": "CASE_16", "case_type": "spike", "latitude": 20.75997, "longitude": 85.28995, "lat_bin": 20.76, "lon_bin": 85.29, "n": 371.0, "active_days": 272.0, "mean_frp": 1.6589757412398922, "median_frp": 1.43, "max_frp": 8.09, "2022": 0.0, "2023": 121.0, "2024": 250.0, "base_monthly": 15.125, "cur_monthly": 20.833333333333329, "count_ratio": 1.3749315818281336, "p95_ratio": 3.7078431372549008, "spike_score": 1.3400352377459346, "h3_cell": "873c83a66ffffff" }, "geometry": { "type": "Point", "coordinates": [ 85.28995, 20.75997 ] } },
{ "type": "Feature", "properties": { "case_id": "CASE_17", "case_type": "vegetation_comparison", "latitude": 24.17025, "longitude": 82.67995, "lat_bin": 24.17, "lon_bin": 82.68, "n": 439.0, "active_days": 238.0, "mean_frp": 2.1148291571753988, "median_frp": null, "max_frp": null, "2022": null, "2023": null, "2024": null, "base_monthly": null, "cur_monthly": null, "count_ratio": null, "p95_ratio": null, "spike_score": null, "h3_cell": "873ca54f0ffffff" }, "geometry": { "type": "Point", "coordinates": [ 82.67995, 24.17025 ] } },
{ "type": "Feature", "properties": { "case_id": "CASE_18", "case_type": "vegetation_comparison", "latitude": 21.27019, "longitude": 79.17988, "lat_bin": 21.27, "lon_bin": 79.18, "n": 385.0, "active_days": 236.0, "mean_frp": 2.9744675324675325, "median_frp": null, "max_frp": null, "2022": null, "2023": null, "2024": null, "base_monthly": null, "cur_monthly": null, "count_ratio": null, "p95_ratio": null, "spike_score": null, "h3_cell": "876096116ffffff" }, "geometry": { "type": "Point", "coordinates": [ 79.17988, 21.27019 ] } },
{ "type": "Feature", "properties": { "case_id": "CASE_19", "case_type": "vegetation_comparison", "latitude": 27.31923, "longitude": 95.26955, "lat_bin": 27.32, "lon_bin": 95.27, "n": 252.0, "active_days": 163.0, "mean_frp": 2.5131746031746034, "median_frp": null, "max_frp": null, "2022": null, "2023": null, "2024": null, "base_monthly": null, "cur_monthly": null, "count_ratio": null, "p95_ratio": null, "spike_score": null, "h3_cell": "873c5ac74ffffff" }, "geometry": { "type": "Point", "coordinates": [ 95.26955, 27.31923 ] } },
{ "type": "Feature", "properties": { "case_id": "CASE_20", "case_type": "vegetation_comparison", "latitude": 20.84061, "longitude": 86.96017, "lat_bin": 20.84, "lon_bin": 86.96, "n": 230.0, "active_days": 118.0, "mean_frp": 3.656434782608696, "median_frp": null, "max_frp": null, "2022": null, "2023": null, "2024": null, "base_monthly": null, "cur_monthly": null, "count_ratio": null, "p95_ratio": null, "spike_score": null, "h3_cell": "873c88cdbffffff" }, "geometry": { "type": "Point", "coordinates": [ 86.96017, 20.84061 ] } }
]
}
