{
"type": "FeatureCollection",
"name": "pyroclass_20_sites_osm_enriched",
"crs": { "type": "name", "properties": { "name": "urn:ogc:def:crs:OGC:1.3:CRS84" } },
"features": [
{ "type": "Feature", "properties": { "case_id": "CASE_01", "case_type": "persistent", "latitude": 23.77988, "longitude": 86.38999, "n": 3821.0, "active_days": 813.0, "mean_frp": 2.926445956555876, "median_frp": 2.28, "max_frp": 18.53, "2022": 1140.0, "2023": 1330.0, "2024": 1351.0, "count_ratio": 1.0938359488755864, "p95_ratio": 1.2248595760101471, "spike_score": 0.59097193292223782, "industrial_polygon_overlap": false, "nearest_facility": "Unnamed facility", "nearest_facility_type": "mining", "nearest_facility_distance_m": 1309.92, "industrial_context_score": 0.25, "industrial_context_level": "low", "context_evidence": "Industrial facility within 1.5 km | Specific industrial facility type identified" }, "geometry": { "type": "Point", "coordinates": [ 86.38999, 23.77988 ] } },
{ "type": "Feature", "properties": { "case_id": "CASE_02", "case_type": "persistent", "latitude": 21.92001, "longitude": 83.35004, "n": 2724.0, "active_days": 796.0, "mean_frp": 3.6162555066079296, "median_frp": 3.08, "max_frp": 17.39, "2022": 923.0, "2023": 969.0, "2024": 832.0, "count_ratio": 0.87964527027027029, "p95_ratio": 0.88658771005146653, "spike_score": 0.40059244629953, "industrial_polygon_overlap": false, "nearest_facility": "Raigarh Jindal power station", "nearest_facility_type": "power_plant", "nearest_facility_distance_m": 806.14, "industrial_context_score": 0.25, "industrial_context_level": "low", "context_evidence": "Industrial facility within 1.5 km | Specific industrial facility type identified" }, "geometry": { "type": "Point", "coordinates": [ 83.35004, 21.92001 ] } },
{ "type": "Feature", "properties": { "case_id": "CASE_03", "case_type": "persistent", "latitude": 20.96012, "longitude": 85.17001, "n": 2269.0, "active_days": 739.0, "mean_frp": 3.3031291317761129, "median_frp": 2.72, "max_frp": 20.43, "2022": 832.0, "2023": 928.0, "2024": 509.0, "count_ratio": 0.57898320472083531, "p95_ratio": 0.90743941917842685, "spike_score": 0.29497174987791841, "industrial_polygon_overlap": false, "nearest_facility": "Lingaraj Coal Mine", "nearest_facility_type": "quarry_mining", "nearest_facility_distance_m": 1096.08, "industrial_context_score": 0.25, "industrial_context_level": "low", "context_evidence": "Industrial facility within 1.5 km | Specific industrial facility type identified" }, "geometry": { "type": "Point", "coordinates": [ 85.17001, 20.96012 ] } },
{ "type": "Feature", "properties": { "case_id": "CASE_04", "case_type": "persistent", "latitude": 23.17003, "longitude": 82.34002, "n": 1974.0, "active_days": 742.0, "mean_frp": 2.5618642350557246, "median_frp": 2.08, "max_frp": 12.98, "2022": 790.0, "2023": 458.0, "2024": 726.0, "count_ratio": 1.1631477927063341, "p95_ratio": 1.2168697107783877, "spike_score": 0.61423951408279553, "industrial_polygon_overlap": false, "nearest_facility": "Chirimiri Coal Mine", "nearest_facility_type": "quarry_mining", "nearest_facility_distance_m": 458.43, "industrial_context_score": 0.35, "industrial_context_level": "low", "context_evidence": "Industrial facility within 750 m | Specific industrial facility type identified" }, "geometry": { "type": "Point", "coordinates": [ 82.34002, 23.17003 ] } },
{ "type": "Feature", "properties": { "case_id": "CASE_05", "case_type": "persistent", "latitude": 22.79002, "longitude": 86.20011, "n": 1708.0, "active_days": 692.0, "mean_frp": 2.6574590163934424, "median_frp": 2.14, "max_frp": 17.31, "2022": 622.0, "2023": 574.0, "2024": 512.0, "count_ratio": 0.85647530040053399, "p95_ratio": 0.86575944154672835, "spike_score": 0.38585083479969068, "industrial_polygon_overlap": false, "nearest_facility": "Jojobera Tata Unit 6 Power Station", "nearest_facility_type": "power_plant", "nearest_facility_distance_m": 1115.12, "industrial_context_score": 0.25, "industrial_context_level": "low", "context_evidence": "Industrial facility within 1.5 km | Specific industrial facility type identified" }, "geometry": { "type": "Point", "coordinates": [ 86.20011, 22.79002 ] } },
{ "type": "Feature", "properties": { "case_id": "CASE_06", "case_type": "persistent", "latitude": 21.11006, "longitude": 72.63004, "n": 1694.0, "active_days": 647.0, "mean_frp": 4.3714344746162928, "median_frp": 3.32, "max_frp": 35.99, "2022": 849.0, "2023": 626.0, "2024": 219.0, "count_ratio": 0.29809124136997428, "p95_ratio": 0.53107131636820615, "spike_score": 0.1111328038512403, "industrial_polygon_overlap": false, "nearest_facility": "ArcelorMittal Nippon Steel India", "nearest_facility_type": "steel_metal", "nearest_facility_distance_m": 1420.62, "industrial_context_score": 0.25, "industrial_context_level": "low", "context_evidence": "Industrial facility within 1.5 km | Specific industrial facility type identified" }, "geometry": { "type": "Point", "coordinates": [ 72.63004, 21.11006 ] } },
{ "type": "Feature", "properties": { "case_id": "CASE_07", "case_type": "persistent", "latitude": 22.38007, "longitude": 87.28001, "n": 1474.0, "active_days": 706.0, "mean_frp": 2.530705563093623, "median_frp": 2.11, "max_frp": 13.8, "2022": 378.0, "2023": 460.0, "2024": 636.0, "count_ratio": 1.5164207520228463, "p95_ratio": 1.4812538414259371, "spike_score": 0.83864156076872443, "industrial_polygon_overlap": false, "nearest_facility": null, "nearest_facility_type": null, "nearest_facility_distance_m": null, "industrial_context_score": 0.0, "industrial_context_level": "none", "context_evidence": "No strong industrial evidence found" }, "geometry": { "type": "Point", "coordinates": [ 87.28001, 22.38007 ] } },
{ "type": "Feature", "properties": { "case_id": "CASE_08", "case_type": "persistent", "latitude": 23.74009, "longitude": 85.00995, "n": 1534.0, "active_days": 655.0, "mean_frp": 2.248722294654498, "median_frp": 1.81, "max_frp": 15.63, "2022": 425.0, "2023": 618.0, "2024": 491.0, "count_ratio": 0.94164912951980095, "p95_ratio": 1.1367706664153086, "spike_score": 0.50382127633273877, "industrial_polygon_overlap": false, "nearest_facility": "Ashoka Coal Mine", "nearest_facility_type": "quarry_mining", "nearest_facility_distance_m": 2690.28, "industrial_context_score": 0.15, "industrial_context_level": "none", "context_evidence": "Specific industrial facility type identified" }, "geometry": { "type": "Point", "coordinates": [ 85.00995, 23.74009 ] } },
{ "type": "Feature", "properties": { "case_id": "CASE_09", "case_type": "persistent", "latitude": 15.17929, "longitude": 76.66086, "n": 1261.0, "active_days": 631.0, "mean_frp": 2.7761379857256148, "median_frp": 2.43, "max_frp": 14.66, "2022": 398.0, "2023": 493.0, "2024": 370.0, "count_ratio": 0.83098276248041192, "p95_ratio": 1.0296833203900253, "spike_score": 0.42816310402044749, "industrial_polygon_overlap": false, "nearest_facility": "Unnamed facility", "nearest_facility_type": "industrial_facility", "nearest_facility_distance_m": 556.13, "industrial_context_score": 0.35, "industrial_context_level": "low", "context_evidence": "Industrial facility within 750 m | Specific industrial facility type identified" }, "geometry": { "type": "Point", "coordinates": [ 76.66086, 15.17929 ] } },
{ "type": "Feature", "properties": { "case_id": "CASE_10", "case_type": "persistent", "latitude": 18.69005, "longitude": 73.03983, "n": 1289.0, "active_days": 605.0, "mean_frp": 2.729689681923972, "median_frp": 2.25, "max_frp": 11.51, "2022": 433.0, "2023": 460.0, "2024": 396.0, "count_ratio": 0.88720125083761447, "p95_ratio": 0.84698501219937328, "spike_score": 0.38966539607358558, "industrial_polygon_overlap": false, "nearest_facility": "Unnamed facility", "nearest_facility_type": "power_plant", "nearest_facility_distance_m": 559.48, "industrial_context_score": 0.35, "industrial_context_level": "low", "context_evidence": "Industrial facility within 750 m | Specific industrial facility type identified" }, "geometry": { "type": "Point", "coordinates": [ 73.03983, 18.69005 ] } },
{ "type": "Feature", "properties": { "case_id": "CASE_11", "case_type": "spike", "latitude": 22.10955, "longitude": 83.11997, "n": 220.0, "active_days": 181.0, "mean_frp": 1.6845, "median_frp": 1.505, "max_frp": 7.08, "2022": 0.0, "2023": 48.0, "2024": 172.0, "count_ratio": 2.4866529774127315, "p95_ratio": 2.8925619834710741, "spike_score": 1.6973968733836826, "industrial_polygon_overlap": false, "nearest_facility": "Chhal Coal Mine", "nearest_facility_type": "quarry_mining", "nearest_facility_distance_m": 1556.89, "industrial_context_score": 0.15, "industrial_context_level": "none", "context_evidence": "Specific industrial facility type identified" }, "geometry": { "type": "Point", "coordinates": [ 83.11997, 22.10955 ] } },
{ "type": "Feature", "properties": { "case_id": "CASE_12", "case_type": "spike", "latitude": 27.46038, "longitude": 95.47127, "n": 65.0, "active_days": 52.0, "mean_frp": 0.94938461538461538, "median_frp": 0.78, "max_frp": 4.02, "2022": 7.0, "2023": 0.0, "2024": 58.0, "count_ratio": 2.3293650793650795, "p95_ratio": 2.988431876606684, "spike_score": 1.6639258548143565, "industrial_polygon_overlap": false, "nearest_facility": null, "nearest_facility_type": null, "nearest_facility_distance_m": null, "industrial_context_score": 0.0, "industrial_context_level": "none", "context_evidence": "No strong industrial evidence found" }, "geometry": { "type": "Point", "coordinates": [ 95.47127, 27.46038 ] } },
{ "type": "Feature", "properties": { "case_id": "CASE_13", "case_type": "spike", "latitude": 22.98076, "longitude": 72.56829, "n": 76.0, "active_days": 71.0, "mean_frp": 1.2868421052631578, "median_frp": 1.125, "max_frp": 5.52, "2022": 0.0, "2023": 3.0, "2024": 73.0, "count_ratio": 1.9946236559139785, "p95_ratio": 3.4036045876570169, "spike_score": 1.6259495410262914, "industrial_polygon_overlap": false, "nearest_facility": null, "nearest_facility_type": null, "nearest_facility_distance_m": null, "industrial_context_score": 0.0, "industrial_context_level": "none", "context_evidence": "No strong industrial evidence found" }, "geometry": { "type": "Point", "coordinates": [ 72.56829, 22.98076 ] } },
{ "type": "Feature", "properties": { "case_id": "CASE_14", "case_type": "spike", "latitude": 23.81019, "longitude": 84.84819, "n": 223.0, "active_days": 187.0, "mean_frp": 1.5255156950672646, "median_frp": 1.11, "max_frp": 7.73, "2022": 49.0, "2023": 63.0, "2024": 111.0, "count_ratio": 1.9632224168126096, "p95_ratio": 3.1486146095717884, "spike_score": 1.5455276309105463, "industrial_polygon_overlap": false, "nearest_facility": "Tetariakhar Coal Mine", "nearest_facility_type": "quarry_mining", "nearest_facility_distance_m": 487.59, "industrial_context_score": 0.35, "industrial_context_level": "low", "context_evidence": "Industrial facility within 750 m | Specific industrial facility type identified" }, "geometry": { "type": "Point", "coordinates": [ 84.84819, 23.81019 ] } },
{ "type": "Feature", "properties": { "case_id": "CASE_15", "case_type": "spike", "latitude": 24.13953, "longitude": 82.56152, "n": 39.0, "active_days": 32.0, "mean_frp": 1.5771794871794871, "median_frp": 1.27, "max_frp": 5.2, "2022": 4.0, "2023": 14.0, "2024": 21.0, "count_ratio": 2.3043478260869565, "p95_ratio": 2.4956413449564137, "spike_score": 1.4958619187512965, "industrial_polygon_overlap": false, "nearest_facility": "Block - B coal mine", "nearest_facility_type": "quarry_mining", "nearest_facility_distance_m": 2535.74, "industrial_context_score": 0.15, "industrial_context_level": "none", "context_evidence": "Specific industrial facility type identified" }, "geometry": { "type": "Point", "coordinates": [ 82.56152, 24.13953 ] } },
{ "type": "Feature", "properties": { "case_id": "CASE_16", "case_type": "spike", "latitude": 20.75997, "longitude": 85.28995, "n": 371.0, "active_days": 272.0, "mean_frp": 1.6589757412398922, "median_frp": 1.43, "max_frp": 8.09, "2022": 0.0, "2023": 121.0, "2024": 250.0, "count_ratio": 1.3749315818281336, "p95_ratio": 3.7078431372549008, "spike_score": 1.3400352377459346, "industrial_polygon_overlap": false, "nearest_facility": null, "nearest_facility_type": null, "nearest_facility_distance_m": null, "industrial_context_score": 0.0, "industrial_context_level": "none", "context_evidence": "No strong industrial evidence found" }, "geometry": { "type": "Point", "coordinates": [ 85.28995, 20.75997 ] } },
{ "type": "Feature", "properties": { "case_id": "CASE_17", "case_type": "vegetation_comparison", "latitude": 24.17025, "longitude": 82.67995, "n": 439.0, "active_days": 238.0, "mean_frp": 2.1148291571753988, "median_frp": null, "max_frp": null, "2022": null, "2023": null, "2024": null, "count_ratio": null, "p95_ratio": null, "spike_score": null, "industrial_polygon_overlap": false, "nearest_facility": "Dudhichua Mine", "nearest_facility_type": "quarry_mining", "nearest_facility_distance_m": 2262.49, "industrial_context_score": 0.15, "industrial_context_level": "none", "context_evidence": "Specific industrial facility type identified" }, "geometry": { "type": "Point", "coordinates": [ 82.67995, 24.17025 ] } },
{ "type": "Feature", "properties": { "case_id": "CASE_18", "case_type": "vegetation_comparison", "latitude": 21.27019, "longitude": 79.17988, "n": 385.0, "active_days": 236.0, "mean_frp": 2.9744675324675325, "median_frp": null, "max_frp": null, "2022": null, "2023": null, "2024": null, "count_ratio": null, "p95_ratio": null, "spike_score": null, "industrial_polygon_overlap": false, "nearest_facility": "Gondegaon-Ghatrohana Coal Mine", "nearest_facility_type": "quarry_mining", "nearest_facility_distance_m": 1341.51, "industrial_context_score": 0.25, "industrial_context_level": "low", "context_evidence": "Industrial facility within 1.5 km | Specific industrial facility type identified" }, "geometry": { "type": "Point", "coordinates": [ 79.17988, 21.27019 ] } },
{ "type": "Feature", "properties": { "case_id": "CASE_19", "case_type": "vegetation_comparison", "latitude": 27.31923, "longitude": 95.26955, "n": 252.0, "active_days": 163.0, "mean_frp": 2.5131746031746034, "median_frp": null, "max_frp": null, "2022": null, "2023": null, "2024": null, "count_ratio": null, "p95_ratio": null, "spike_score": null, "industrial_polygon_overlap": false, "nearest_facility": null, "nearest_facility_type": null, "nearest_facility_distance_m": null, "industrial_context_score": 0.0, "industrial_context_level": "none", "context_evidence": "No strong industrial evidence found" }, "geometry": { "type": "Point", "coordinates": [ 95.26955, 27.31923 ] } },
{ "type": "Feature", "properties": { "case_id": "CASE_20", "case_type": "vegetation_comparison", "latitude": 20.84061, "longitude": 86.96017, "n": 230.0, "active_days": 118.0, "mean_frp": 3.656434782608696, "median_frp": null, "max_frp": null, "2022": null, "2023": null, "2024": null, "count_ratio": null, "p95_ratio": null, "spike_score": null, "industrial_polygon_overlap": false, "nearest_facility": null, "nearest_facility_type": null, "nearest_facility_distance_m": null, "industrial_context_score": 0.0, "industrial_context_level": "none", "context_evidence": "No strong industrial evidence found" }, "geometry": { "type": "Point", "coordinates": [ 86.96017, 20.84061 ] } }
]
}
